Name,Address,City State,ZIP,Number of Sites,Url,latitude,longitude
Grass Lake Marina & RV Park,"26250 W Heart O Lakes Blvd,","Antioch, IL",60002.0,123,https://www.mhvillage.com/parks/126558,42.4489337,-88.1436359
Lupas Resort and Marina,"25276 W Grass Lake Rd,","Antioch, IL",60002.0,32,https://www.mhvillage.com/parks/72915,42.428997,-88.1798216
Inland Harbor,"38816 Broadway Ave,","Antioch, IL",60002.0,Not found,https://www.mhvillage.com/parks/69993,42.4283048,-88.1428634
Dolphin Harbor,"26222 West Oak Avenue,","Antioch, IL",60002.0,Not found,https://www.mhvillage.com/parks/10786,42.4463382,-88.1478377
North Fox Recreational,"38788 North Broadway Avenue,","Antioch, IL",60002.0,Not found,https://www.mhvillage.com/parks/10789,42.4274411,-88.1426016
Island on the Chain,"38600 N. Lakeside Pl,","Antioch, IL",60002.0,Not found,https://www.mhvillage.com/parks/72940,42.421246,-88.1546469
Willoway Terrace,"2300 East Oakton Street,","Arlington Heights, IL",60005.0,339,https://www.mhvillage.com/parks/11670,42.0955268,-87.9568791
Oakbrook Estates,"911 Crookedstick Court,","Crystal Lake, IL",60014.0,400,https://www.mhvillage.com/parks/11041,42.2221426,-88.27730636
Royal Oaks Mobile Home Park,"7920 Ridgefield Road,","Crystal Lake, IL",60014.0,54,https://www.mhvillage.com/parks/11042,42.2550888,-88.35299
Rand Road Community,"1330 Rand Road,","Des Plaines, IL",60016.0,140,https://www.mhvillage.com/parks/10373,42.0313084,-87.861055
Buckhorn Estates,"2993 Curtis Street,","Des Plaines, IL",60018.0,143,https://www.mhvillage.com/parks/10367,42.1269315,-79.2263095
Blackhawk Estates,"400 West Touhy Avenue,","Des Plaines, IL",60018.0,496,https://www.mhvillage.com/parks/10374,42.0113571,-87.8278673
Oasis Mobile Home Park,"7500 Elmhurst Road,","Des Plaines, IL",60018.0,600,https://www.mhvillage.com/parks/10372,51.4333592,0.0433566
Town & Country,"815 East Oakton Street,","Des Plaines, IL",60018.0,309,https://www.mhvillage.com/parks/10375,42.0954359,-87.9739903
Chain O Lakes Mobile Homes,"24430 W Highway 120,","Grayslake, IL",60030.0,66,https://www.mhvillage.com/parks/47088,42.33585672,-88.11028781
Saddlebrook Farms,"1 Saddlebrook Drive,","Grayslake, IL",60030.0,1775,https://www.mhvillage.com/parks/75235,39.8701453,-76.5512994
Avon Mobile Home Park,"360 Ivanhoe Rd,","Grayslake, IL",60030.0,Not found,https://www.mhvillage.com/parks/57880,42.4724608,-92.3607183
Hi-Way Mh Park,"1200 N Division St,","Harvard, IL",60033.0,Not found,https://www.mhvillage.com/parks/57867,42.42853,-88.613649
Sunset View Mh Park,"347 S Division St,","Harvard, IL",60033.0,Not found,https://www.mhvillage.com/parks/57866,42.4130501,-88.6135615
Ravinia Lake Bluff,"213 North Skokie Highway,","Lake Bluff, IL",60044.0,63,https://www.mhvillage.com/parks/10801,42.2844043,-87.8706228
South Shore Village,"240 Whitney Road,","Lake Zurich, IL",60047.0,42,https://www.mhvillage.com/parks/10802,34.971929,-81.9412435
Harbor Lites,"1009 W. Bay Road, Office #24,","McHenry, IL",60051.0,50,https://www.mhvillage.com/parks/11047,42.364728,-88.21630219
Ports of Sullivan,"135 Stowaway,","Lakemoor, IL",60051.0,Not found,https://www.mhvillage.com/parks/129651,42.3434037,-88.1947089
Paul's Mobile Home Park,"26312 North State Route 83,","Mundelein, IL",60060.0,18,https://www.mhvillage.com/parks/10806,34.7437285,-77.3379131
Diamond Lake Mobile Home Park,"26265 N. Il Route 83,","Mundelein, IL",60060.0,63,https://www.mhvillage.com/parks/10805,36.7705662,2.9368257
Villas Of Timber Creek,"1 Timber Creek Drive,","Round Lake, IL",60073.0,247,https://www.mhvillage.com/parks/10813,35.130957,-89.792674
Fish Lake Beach RV,"32223 N Us Highway 12,","Volo, IL",60073.0,Not found,https://www.mhvillage.com/parks/72942,30.5841826,-84.6112625
Cambridge Courts,"775 W. Long Lake Drive,","Round Lake, IL",60073.0,329,https://www.mhvillage.com/parks/10809,44.0917901,-84.7717906
Harmony Village,"430 Barrington Road,","Wauconda, IL",60084.0,136,https://www.mhvillage.com/parks/10815,42.3620952,-82.9294529
Woodland Mobile Home Park,"410 Barrington Road,","Wauconda, IL",60084.0,100,https://www.mhvillage.com/parks/10816,42.2522419,-88.1376845
Maple Grove Estates,"3308 Kehm Blvd.,","Park City, IL",60085.0,613,https://www.mhvillage.com/parks/33821,42.3490193,-87.8838158
Farmington Estates,"3308 Kehm Boulevard,","Park City, IL",60085.0,225,https://www.mhvillage.com/parks/11674,42.3490193,-87.8838158
Genes Evergreen Estates,"735 Staben Street,","Park City, IL",60085.0,200,https://www.mhvillage.com/parks/10817,42.34478631,-87.88429
Midway Estates,"3308 Kehm Boulevard,","Park City, IL",60085.0,198,https://www.mhvillage.com/parks/10808,42.3490193,-87.8838158
Park City Manufactured Home Community,"3418 Kehm Boulevard,","Park City, IL",60085.0,641,https://www.mhvillage.com/parks/57237,42.3493519,-87.8855247
Lake View Manufactured Home Community,"38285 N Sheridan Rd,","Beach Park, IL",60087.0,188,https://www.mhvillage.com/parks/10820,42.4179157,-87.8217641
Kings Way Estates,"38455 North Sheridan Road,","Beach Park, IL",60087.0,361,https://www.mhvillage.com/parks/11356,42.4200659,-87.8258106
Pinecrest Mobile Home Park,"37021 N Sheridan Rd,","Beach Park, IL",60087.0,Not found,https://www.mhvillage.com/parks/10824,42.3995068,-87.8281729
Whippletree Village,"525 N. Mchenry Rd.,","Wheeling, IL",60090.0,407,https://www.mhvillage.com/parks/10420,-33.7267318,150.7103873
Fox Point,"573 South Milwaukee Avenue,","Wheeling, IL",60090.0,45,https://www.mhvillage.com/parks/10419,42.2772221,-87.95207
Sunset Village,"2450 Waukegan Road,","Northfield, IL",60093.0,329,https://www.mhvillage.com/parks/10408,42.1001114,-87.7986735
Hollyhock Hill Mobile Home Park,"1601 Sheridan Rd,","Winthrop Harbor, IL",60096.0,Not found,https://www.mhvillage.com/parks/106900,42.4771625,-87.8240461
Beach Mobile Home Park,"38703 North Sheridan Road,","Beach Park, IL",60099.0,208,https://www.mhvillage.com/parks/10829,42.4239121,-87.8258009
Avalon Mobile Home Park,"1639 Sheridan Road,","Zion, IL",60099.0,31,https://www.mhvillage.com/parks/10828,42.464826,-87.8244431
Shoreline Terrace,"38569 N Sheridan Rd,","Beach Park, IL",60099.0,Not found,https://www.mhvillage.com/parks/105849,42.4212049,-87.8258069
Spring Lake Mobile Home Estates,"100 First Street,","Bartlett, IL",60103.0,511,https://www.mhvillage.com/parks/10341,37.789207,-122.397587
Cortland,"300 South Somonauk Road,","Dekalb, IL",60115.0,81,https://www.mhvillage.com/parks/10437,41.914292,-88.688723
Southmoor Estates Manufactured Home Community,"1032 South 7th Street,","Dekalb, IL",60115.0,100,https://www.mhvillage.com/parks/10438,41.917241,-88.7480499
Old Oaks Estates,"850 Villa Street,","Elgin, IL",60120.0,264,https://www.mhvillage.com/parks/11676,34.013224,-117.3310903
Villa Garden Estates,"452 Lucille Avenue,","Elgin, IL",60120.0,141,https://www.mhvillage.com/parks/10687,40.6960681,-73.686222
Willow Lake Estates,"161 West River Road,","Elgin, IL",60123.0,623,https://www.mhvillage.com/parks/10688,44.5284757,-69.668247
Bueche's Mobile Home Park,"909 South Mclean Boulevard,","Elgin, IL",60123.0,Not found,https://www.mhvillage.com/parks/36384,35.1211477,-90.001707
Forest View Manor Manufactured Home Park,"100 Forest View Drive,","Genoa, IL",60135.0,100,https://www.mhvillage.com/parks/10439,44.4328422,-64.5934204
Indian Trails,"1150 Briden Drive,","Marengo, IL",60152.0,167,https://www.mhvillage.com/parks/11045,42.2472844,-88.6227856
Guerine Mobile Home Park,"4700 Division Street,","Melrose Park, IL",60160.0,347,https://www.mhvillage.com/parks/10404,41.8998716,-87.8913357
Meadowcreek Mobile Home Park,"4503 West Lake Street,","Melrose Park, IL",60160.0,287,https://www.mhvillage.com/parks/10418,41.8860962,-87.7383196
Edgebrook,"1801 Dekalb Avenue,","Sycamore, IL",60178.0,247,https://www.mhvillage.com/parks/10447,40.7071581,-73.9164614
Pleasant Ridge,"27W370 Geneva Road,","West Chicago, IL",60185.0,148,https://www.mhvillage.com/parks/10476,41.88905914,-88.15506577
Wood Dale Estates,"140 South Wood Dale Road,","Wood Dale, IL",60191.0,97,https://www.mhvillage.com/parks/10477,41.954537,-87.978855
Pheasant Lake Estates,"1 Pheasant Circle,","Beecher, IL",60401.0,613,https://www.mhvillage.com/parks/87,40.889855,-73.4485541
Imperial MHP,"106 East Jefferson Street,","Shorewood, IL",60404.0,184,https://www.mhvillage.com/parks/36813,41.5216351,-88.1973496
AAA Mobile Home Park,"2005 West 139th Street,","Blue Island, IL",60406.0,105,https://www.mhvillage.com/parks/10342,38.8761806,-94.6109435
American Mobile Home Park,"14149 S Western Ave,","Blue Island, IL",60406.0,47,https://www.mhvillage.com/parks/10343,41.634281,-87.67752001
Smith Mobile Homes,"14115 South Western Avenue,","Blue Island, IL",60406.0,233,https://www.mhvillage.com/parks/10350,35.3282629,-97.5299985
Sycamore Mobile Home Park,"1750 W Broadway,","Blue Island, IL",60406.0,86,https://www.mhvillage.com/parks/11682,41.6533101,-87.6601969
Colonial Estates,"14139 South Western Avenue,","Dixmoor, IL",60406.0,183,https://www.mhvillage.com/parks/10346,41.6359915,-87.67772964
Blue Island Mobile Home Park,"13667 Western Avenue,","Blue Island, IL",60406.0,Not found,https://www.mhvillage.com/parks/10344,41.644483,-87.679979
Broadway Estates,"2800 Broadway Street,","Blue Island, IL",60406.0,Not found,https://www.mhvillage.com/parks/10345,41.65017108,-87.68968528
Modern Estates & Forest View Mobile Home Park,"14001 Western Avenue,","Blue Island, IL",60406.0,Not found,https://www.mhvillage.com/parks/10349,41.8891862,-87.6882106
Mourning Trailer Park,"452 N Vernon Dr,","Godley, IL",60407.0,Not found,https://www.mhvillage.com/parks/11568,33.3104356,-111.8013885
Dixon Mobile Home Park,"177 N Center St,","Braidwood, IL",60408.0,Not found,https://www.mhvillage.com/parks/11556,41.2668385,-88.2172584
River Oaks Mobile Estates,"2025 Dolton Road,","Calumet City, IL",60409.0,301,https://www.mhvillage.com/parks/10352,50.9362297,-1.4476088
Park Harbor Mobile Home Park,"4 Oak Court,","Calumet City, IL",60409.0,Not found,https://www.mhvillage.com/parks/10351,41.6308202,-87.5778116
Remington Woods,"22500 S Remington Dr,","Channahon, IL",60410.0,175,https://www.mhvillage.com/parks/42386,41.4740138,-88.1914646
Alpine Village,"450 Chillon Drive,","Lynwood, IL",60411.0,677,https://www.mhvillage.com/parks/10365,41.5006037,-87.5282405
Weatherstone Lakes,"21191 Torrence Avenue,","Sauk Village, IL",60411.0,105,https://www.mhvillage.com/parks/37881,41.5111841,-87.5583618
Candlelight Village,"4 Candlelight Drive,","Sauk Village, IL",60411.0,309,https://www.mhvillage.com/parks/10361,41.9253626,-70.7234167
Paradise Park,"699 Michelle Drive,","Lynwood, IL",60411.0,278,https://www.mhvillage.com/parks/57999,30.4278524,-88.9482586
Linway Estates,"2836 East Lincoln Highway,","Chicago Heights, IL",60411.0,300,https://www.mhvillage.com/parks/10362,40.8343627,-83.8267073
Manson Mobile Home Park,"3001 Forest Preserve Drive,","Chicago Heights, IL",60411.0,Not found,https://www.mhvillage.com/parks/10363,41.481719,-87.654641
Burt Estates,"300 N Daley Street,","Diamond, IL",60416.0,242,https://www.mhvillage.com/parks/10549,41.290705,-88.253036
Burt Estates,"300 N Daley St,","Diamond, IL",60416.0,Not found,https://www.mhvillage.com/parks/10550,41.290705,-88.253036
Queens Estates,"1712 South Dixie Highway,","Crete, IL",60417.0,148,https://www.mhvillage.com/parks/11561,26.2107691,-80.1323414
Gianni Mobile Home Park,"925 Main Street,","Crete, IL",60417.0,Not found,https://www.mhvillage.com/parks/11560,41.4589332,-87.6336299
Creek Ridge,"300 East Spencer Street,","Dwight, IL",60420.0,97,https://www.mhvillage.com/parks/10851,38.473972,-77.992574
Dwight Mobile Home Park,"401 West Williams Street,","Dwight, IL",60420.0,Not found,https://www.mhvillage.com/parks/10852,41.087816,-88.437362
Olsen Mobile Home Park,"516 E Seminole St,","Dwight, IL",60420.0,Not found,https://www.mhvillage.com/parks/10850,36.1804201,-95.9881897
Shady Nook Mobile Home Park,"314 S Saint Louis St,","Elwood, IL",60421.0,80,https://www.mhvillage.com/parks/11565,41.401075,-88.107376
Gateway Manufactured Home Community,"22900 South Big Run Drive,","Frankfort, IL",60423.0,442,https://www.mhvillage.com/parks/29546,41.472845,-87.876762
Bookwalter Woods,"23 Sistek Road,","Gardner, IL",60424.0,167,https://www.mhvillage.com/parks/10551,41.2170454,-88.3019079
"Dixie Garden Homes, Inc","15000 Dixie Highway,","Harvey, IL",60426.0,187,https://www.mhvillage.com/parks/10382,25.5352325,-80.412112
Specialville Estates,"14136 S. Wood Street,","Dixmoor, IL",60426.0,Not found,https://www.mhvillage.com/parks/129579,41.63223909,-87.66107987
Western Crossing,"14001 S. Western Avenue,","Dixmoor, IL",60426.0,Not found,https://www.mhvillage.com/parks/129298,41.63915479,-87.678687
Hazel Crest MHC,"16902 Dixie Hwy,","Hazel Crest, IL",60429.0,22,https://www.mhvillage.com/parks/106444,41.5825131,-87.6656268
Ely's Trailer Park,"861 Ridge Road,","Homewood, IL",60430.0,Not found,https://www.mhvillage.com/parks/10389,41.5622961,-87.638013
Stateville Court Federal Employee Community,"St Rte 53,","Joliet, IL",60435.0,Not found,https://www.mhvillage.com/parks/11578,41.65563038,-88.07991631
Modern Manor,"1703 South Chicago Street,","Joliet, IL",60436.0,40,https://www.mhvillage.com/parks/89,41.4934878,-88.0808113
Peet's Mobile Home Park,"1519 S Chicago St,","Joliet, IL",60436.0,Not found,https://www.mhvillage.com/parks/11573,41.4959338,-88.0804709
Busy Bee Mobile Home Park,"13555 South Archer Avenue,","Lemont, IL",60439.0,Not found,https://www.mhvillage.com/parks/10397,41.6402981,-88.004146
Triangal Mh Park,"15051 S Archer Ave,","Lockport, IL",60441.0,Not found,https://www.mhvillage.com/parks/57834,41.6119313,-88.0408806
Timber Ridge Park LLC,"21700 Timber Ridge Road,","Matteson, IL",60443.0,773,https://www.mhvillage.com/parks/10402,41.49673147,-87.77448326
Maple Brook,"21635 Ridgeland Avenue,","Matteson, IL",60443.0,440,https://www.mhvillage.com/parks/10401,-33.7661661,151.1480546
Benson Mobile Home Park,"Sucker Road,","Mazon, IL",60444.0,14,https://www.mhvillage.com/parks/11667,40.8240139,-123.608159
Rustic Acres Mobile Home Park,"3510 S Dwight Rd,","Mazon, IL",60444.0,Not found,https://www.mhvillage.com/parks/107164,41.2333176,-88.43770038
Shady Oaks,"14 Central,","Minooka, IL",60447.0,364,https://www.mhvillage.com/parks/10555,-11.992785,-77.1098713
Golf Vista Estates,"4951 Augusta Blvd.,","Monee, IL",60449.0,497,https://www.mhvillage.com/parks/11581,41.4210866,-87.732526
Dresden Acres,"9070 North Dresden Drive,","Morris, IL",60450.0,Not found,https://www.mhvillage.com/parks/10556,41.4185581,-88.3229056
Hildy Mobile Home Park,"1215 Price St,","Morris, IL",60450.0,Not found,https://www.mhvillage.com/parks/106920,30.3246357,-81.6773259
Oak Forest,"5110 159th Street,","Oak Forest, IL",60452.0,70,https://www.mhvillage.com/parks/10409,44.9174444,-91.3494558
Airway Manufactured Housing Community,"9001 South Cicero Avenue,","Oak Lawn, IL",60453.0,268,https://www.mhvillage.com/parks/10410,41.729043,-87.740985
Rosebud,"8800 South Harlem Avenue,","Bridgeview, IL",60455.0,865,https://www.mhvillage.com/parks/11680,41.8552867,-87.8038741
Sterling Estates,"9300 W. 79th St.,","Justice, IL",60458.0,807,https://www.mhvillage.com/parks/10391,41.7475607,-87.8237126
Chief Mobile Home Park,"8101 West 79th Street,","Justice, IL",60458.0,165,https://www.mhvillage.com/parks/10390,38.9857339,-94.6796914
Riverside West Manufactured Homes,"North Park Street,","Wilmington, IL",60481.0,11,https://www.mhvillage.com/parks/126080,39.9654851,-75.1591376
Carter Mobile Home Park,"North Park Street,","Wilmington, IL",60481.0,Not found,https://www.mhvillage.com/parks/11584,39.9654851,-75.1591376
Shadow Lakes - Tully Monster Village,"Coal City Rd,","Wilmington, IL",60481.0,Not found,https://www.mhvillage.com/parks/127512,33.8202692,-87.3003986
Arrow Ridge Estates,"11701 S Ridgeland Ave,","Worth, IL",60482.0,93,https://www.mhvillage.com/parks/75081,41.677843,-87.778181
Water's Edge Estates,"7240 West 107th Street,","Worth, IL",60482.0,173,https://www.mhvillage.com/parks/10424,38.9343021,-94.6697969
Southwest Estates,"10401 Southwest Highway,","Worth, IL",60482.0,111,https://www.mhvillage.com/parks/10423,41.6488287,-87.8426851
Arrow Mobile Home Park,"11725 Sourth Ridgeland Avenue,","Worth, IL",60482.0,120,https://www.mhvillage.com/parks/10421,41.67791359,-87.77675636
Margarets Hi-Acre,"1100 Rural St,","Aurora, IL",60505.0,100,https://www.mhvillage.com/parks/58112,42.27423,-89.079445
Breazeale Trailer Park,"1147 Rural Street,","Aurora, IL",60505.0,Not found,https://www.mhvillage.com/parks/10676,42.2740763,-89.0789541
Margaret's Parkview Estates,"800 Hill Avenue,","Aurora, IL",60505.0,Not found,https://www.mhvillage.com/parks/10678,40.3365596,-75.9542947
Dearborn Mobile Home Park,"1700 Block E Dearborn Ave,","Aurora, IL",60505.0,Not found,https://www.mhvillage.com/parks/106938,41.76781035,-88.27257706
Patterson Mh Park,"1220 Hinckley St,","Aurora, IL",60505.0,Not found,https://www.mhvillage.com/parks/58111,41.7327227,-88.309114
Oak Terrace Manufactured Home Community,"42 Oak Terrace Court,","Batavia, IL",60510.0,Not found,https://www.mhvillage.com/parks/10683,41.8604598,-88.3073878
Earlville Mobile Home Park,"4461 E 1251st Road,","Earlville, IL",60518.0,31,https://www.mhvillage.com/parks/10741,41.5793636,-88.922161
Century Estates,"1610 E Us Route 34,","Earlville, IL",60518.0,Not found,https://www.mhvillage.com/parks/107406,41.58644713,-88.85906854
Century Estates,"1610 Walter Payton Memorial Hwy,","Earlville, IL",60518.0,Not found,https://www.mhvillage.com/parks/107408,41.5865033,-88.85910073
Country Club Woods,"9800 Joliet Rd.,","Countryside, IL",60525.0,310,https://www.mhvillage.com/parks/29162,41.3532574,-87.8498272
"Weeping Willow Ranch MHC, LLC.","6801 S. La Grange Rd.,","Hodgkins, IL",60525.0,182,https://www.mhvillage.com/parks/68350,41.7766312,-87.8680184
Valley Oaks,"6208 Lawn Drive,","Hodgkins, IL",60525.0,132,https://www.mhvillage.com/parks/11715,41.7750736,-87.8584818
La Grange Estates,"6 Court Dr,","La Grange, IL",60525.0,115,https://www.mhvillage.com/parks/11668,53.4943465,-2.1655137
Parkview MHC,"8783 Canary Lane,","Hodgkins, IL",60525.0,165,https://www.mhvillage.com/parks/10386,41.7722079,-87.8512159
Crooked Tree Campground,"8574 Milbrook Road,","Millbrook, IL",60536.0,40,https://www.mhvillage.com/parks/10720,36.0337952,-86.831377
Oak Grove Mobile Home Village,"1336 Douglas Avenue,","Montgomery, IL",60538.0,85,https://www.mhvillage.com/parks/10689,41.72966293,-88.31965864
Countryside Estates MHP,"E 2750th Road & Center Street,","Sandwich, IL",60548.0,63,https://www.mhvillage.com/parks/10441,41.61794211,-88.65011957
Wildwood Estates,"1 Birch Drive,","Sandwich, IL",60548.0,476,https://www.mhvillage.com/parks/83,41.62127512,-88.64956117
Triangle Manufactured Home Community,"1251 Lauren Drive,","Sandwich, IL",60548.0,72,https://www.mhvillage.com/parks/10446,41.6459707,-88.6394383
Jon's Estates,"12 Chrissy Drive,","Sandwich, IL",60548.0,35,https://www.mhvillage.com/parks/10444,41.604866,-88.6214533
Sandwich Mobile Home Park,"1027 East Railroad Street,","Sandwich, IL",60548.0,Not found,https://www.mhvillage.com/parks/10445,30.3760386,-89.0689102
Leifheit Mh Park,"435 S Elm St,","Waterman, IL",60556.0,Not found,https://www.mhvillage.com/parks/57631,41.764476,-88.7739241
Waterman Mobile Home Park,"250 E Lincoln Highway,","Waterman, IL",60556.0,Not found,https://www.mhvillage.com/parks/107252,41.7690605,-88.7683524
Hide Away Lakes Mobile Home Park,"8045 Van Emmon Road,","Yorkville, IL",60560.0,Not found,https://www.mhvillage.com/parks/64590,41.6463375,-88.4096227
Harbor Point Estates,"4000 East 134th Street,","Chicago, IL",60633.0,775,https://www.mhvillage.com/parks/28682,41.6524893,-87.5293961
OK Trailer Park,"2826 E 138th Place,","Chicago, IL",60633.0,Not found,https://www.mhvillage.com/parks/10358,41.644024,-87.547476
South East,"401 136th Street,","Chicago, IL",60633.0,Not found,https://www.mhvillage.com/parks/10354,38.442291,-75.058339
Oak Lane Mobile Home Park,"11750 South Homan Avenue,","Merrionette Park, IL",60803.0,223,https://www.mhvillage.com/parks/10359,41.6803441,-87.7054406
Century Mobile Home Park,"12357 South Ashland Avenue,","Calumet Park, IL",60827.0,Not found,https://www.mhvillage.com/parks/10355,41.8501577,-87.6659409
Skyview Estates,"93 N. 3530E Road,","Kankakee, IL",60901.0,28,https://www.mhvillage.com/parks/103599,41.12106819,-87.80616999
Kankakee Estates,"1995 South Schuyler Avenue,","Kankakee, IL",60901.0,168,https://www.mhvillage.com/parks/10704,41.1044466,-87.8686423
Tri-Star Estates,"43 E 5000N Rd.,","Bourbonnais, IL",60914.0,850,https://www.mhvillage.com/parks/10695,41.1917959,-87.875438
Oak Creek Estates,"1343 N Arthur Burch Dr,","Bourbonnais, IL",60914.0,343,https://www.mhvillage.com/parks/10692,41.1679824,-87.8537681
Dehm Court,"207 W Elm St,","Chatsworth, IL",60921.0,Not found,https://www.mhvillage.com/parks/107038,40.751688,-88.298616
Chebanse MH Estates,"5194 S Route 45-52,","Chebanse, IL",60922.0,89,https://www.mhvillage.com/parks/10698,51.4768661,-0.2313718
River Crest Mobile Home Park,"5800 River Road,","Chebanse, IL",60922.0,16,https://www.mhvillage.com/parks/10587,41.03848634,-87.84850327
Iroquois Mobile Estates,"3118 North Us Highway 45 52,","Chebanse, IL",60922.0,51,https://www.mhvillage.com/parks/10586,35.8708694,-76.6979584
Barberry Acres,"6478 S Route 45-52,","Chebanse, IL",60922.0,Not found,https://www.mhvillage.com/parks/10697,51.4768661,-0.2313718
Carriage Lane Mobile Home Park,"1104 N Lott Blvd,","Gibson City, IL",60936.0,46,https://www.mhvillage.com/parks/10510,40.4778403,-88.3720628
Hunts Mh Park,"601 Orange Street,","Hoopeston, IL",60942.0,Not found,https://www.mhvillage.com/parks/57858,40.458858,-87.678802
R&S Rentals,"205 S Elm St,","Loda, IL",60948.0,Not found,https://www.mhvillage.com/parks/106982,40.5141193,-88.0683063
Ludlow Mobile Home Park,"Poplar Street,","Ludlow, IL",60949.0,11,https://www.mhvillage.com/parks/10210,51.5822291,0.1678913
Oak Ridge,"1099 Oak Ridge Drive,","Manteno, IL",60950.0,426,https://www.mhvillage.com/parks/39079,35.1009116,-89.9235076
Maple Crest Manor,"550 Birch Street,","Manteno, IL",60950.0,109,https://www.mhvillage.com/parks/10711,41.2536355,-87.8282504
Manteno,"6024 East 9120 North Road,","Manteno, IL",60950.0,80,https://www.mhvillage.com/parks/10710,41.25297186,-87.76051643
Maple Ridge Mobile Home Park,"1 Maple Valley,","Manteno, IL",60950.0,276,https://www.mhvillage.com/parks/57826,34.416829,-84.471794
Maple Valley,"1 Silver Circle,","Manteno, IL",60950.0,201,https://www.mhvillage.com/parks/10713,41.255479,-87.826694
Sunny Acres,"200 Franklin Drive,","Manteno, IL",60950.0,189,https://www.mhvillage.com/parks/10478,37.236987,-80.4166514
Bill's Mobile Court,"10557 North State Route 50,","Manteno, IL",60950.0,Not found,https://www.mhvillage.com/parks/10707,34.7437285,-77.3379131
Harvest Estates,"10557 N Route 50,","Manteno, IL",60950.0,Not found,https://www.mhvillage.com/parks/106826,35.6354872,139.7669716
Combs Mobile Home Park,"434 W Pine St,","Paxton, IL",60957.0,Not found,https://www.mhvillage.com/parks/57755,33.7432903,-117.8713827
Paxton MHC,"Route 45 And East Chestnut St.,","Paxton, IL",60957.0,Not found,https://www.mhvillage.com/parks/106924,40.46627948,-88.09332337
Shannon Shores Mobile Home Park,"18530 West 3000 North Road,","Reddick, IL",60961.0,189,https://www.mhvillage.com/parks/10716,41.1581803,-88.2333078
Windmill Estates,"5550 S. Il Route 1,","Saint Anne, IL",60964.0,28,https://www.mhvillage.com/parks/10705,39.6410653,-87.6922135
Beaver Creek Village,"1795 E 3180 N Rd,","Saint Anne, IL",60964.0,Not found,https://www.mhvillage.com/parks/106802,40.97105567,-87.79478926
Sugar Creek Mobile Home Community,"1005 West Lafayette Street,","Watseka, IL",60970.0,46,https://www.mhvillage.com/parks/10594,40.7798686,-87.7490051
Watch-E-Kee Mobile Home Park,"31A Watch-E-Kee Drive,","Watseka, IL",60970.0,63,https://www.mhvillage.com/parks/10597,40.77323739,-87.66868604
Greenview Estates,"3901 Newburg Rd,","Belvidere, IL",61008.0,355,https://www.mhvillage.com/parks/10164,38.1808035,-85.6612236
The Four Seasons,"700 Chrysler Drive,","Belvidere, IL",61008.0,587,https://www.mhvillage.com/parks/11660,42.3376877,-83.0420158
Holiday Acres Mobile Home Park,"7050 Epworth,","Belvidere, IL",61008.0,50,https://www.mhvillage.com/parks/11614,42.2564637,-88.767333
Bel-Bo Mobile Home Park,"1211 West Locust Street,","Belvidere, IL",61008.0,Not found,https://www.mhvillage.com/parks/10162,43.071147,-87.9269691
Park Meadowlands West Mhc,"2630 Spring Creek Rd,","Belvidere, IL",61008.0,Not found,https://www.mhvillage.com/parks/58082,42.3002661,-88.8884672
Lakeview Mobile Home Park,"8528 Route 2,","Byron, IL",61010.0,Not found,https://www.mhvillage.com/parks/106914,46.4414235,-63.6272761
Rolling Meadows Mobile Home Park,"4989 N Il Route 251,","Davis Junction, IL",61020.0,149,https://www.mhvillage.com/parks/11124,42.0940741,-89.07494679
Chateau Estates,"1100 Carondelet Road,","Dixon, IL",61021.0,160,https://www.mhvillage.com/parks/10839,41.834703,-89.461198
Rock River Estates,"291 Il Rt. 2,","Dixon, IL",61021.0,200,https://www.mhvillage.com/parks/10845,41.82242758,-89.57696167
Shamrock Mobile Home Park,"1351 Chicago Avenue,","Dixon, IL",61021.0,16,https://www.mhvillage.com/parks/10843,41.8317405,-89.462855
Greenacres Mobile Home Park,"519 South Il Route,","Dixon, IL",61021.0,Not found,https://www.mhvillage.com/parks/10842,38.7935856,-89.9786743
Frentriss Lake,"511 Kroll Road,","East Dubuque, IL",61025.0,60,https://www.mhvillage.com/parks/11675,44.6912386,-88.1414312
Spring Brook MHP LLC,"601 N Ash,","Forreston, IL",61030.0,31,https://www.mhvillage.com/parks/129581,42.1325165,-89.5815936
Simlers Park,"604 North Walnut Avenue,","Forreston, IL",61030.0,35,https://www.mhvillage.com/parks/11126,36.056654,-95.8137246
Candle Lite Mobile Home Park,"Oak St,","Forreston, IL",61030.0,Not found,https://www.mhvillage.com/parks/107022,9.2786182,18.5776598
Timber Ridge MHP LLC,"3998 Baileyville Road,","Freeport, IL",61032.0,60,https://www.mhvillage.com/parks/11430,42.2436863,-89.6000086
Knollwood Estates Manufactured Home Community,"100 Tanglewood Dr.,","Freeport, IL",61032.0,300,https://www.mhvillage.com/parks/11426,32.4660549,-86.3872145
Stephenson Manufactured Housing Community,"6807 W. Stephenson St,","Freeport, IL",61032.0,88,https://www.mhvillage.com/parks/11429,42.2975739,-89.6221703
Woodridge Estates Manufactured Housing Community,"2284 W. Galena Ave.,","Freeport, IL",61032.0,215,https://www.mhvillage.com/parks/11432,42.305737,-89.6551155
West Town Mobile Home Park,"2044 West Galena Avenue,","Freeport, IL",61032.0,55,https://www.mhvillage.com/parks/11431,42.3039447,-89.6521419
Paradise Park,"11122 Station Street,","Garden Prairie, IL",61038.0,270,https://www.mhvillage.com/parks/105900,42.2542267,-88.7211657
Griffiths Mobile Home Park,"4255 West Blanding Road,","Hanover, IL",61041.0,Not found,https://www.mhvillage.com/parks/10667,42.2510886,-90.2960935
Woodland Valley Courts,"1042 W Rush Rd,","Hanover, IL",61041.0,Not found,https://www.mhvillage.com/parks/57872,42.206342,-90.2331947
Mt. Morris Estates MHP LLC,"3747 West Il Route 64,","Mount Morris, IL",61054.0,171,https://www.mhvillage.com/parks/11127,42.03965708,-89.40629304
Six Oaks Manufactured Home Community,"16260 W State Rd,","Pecatonica, IL",61063.0,Not found,https://www.mhvillage.com/parks/106834,42.28642236,-89.3543531
Oak Lawn Mobile Home Park,"13011 Office Drive,","Poplar Grove, IL",61065.0,180,https://www.mhvillage.com/parks/10169,41.820945,-87.9794852
River Road Mobile Home Park,"4500 East River Road,","Ridott, IL",61067.0,Not found,https://www.mhvillage.com/parks/11434,42.31103035,-89.52624616
Shangri La Mobile Home Park,"10978 East Fisher Road,","Rochelle, IL",61068.0,165,https://www.mhvillage.com/parks/11133,41.9186719,-89.1327194
Town & Country Mobile Home Park,"800 Treatment Plant Road,","Rochelle, IL",61068.0,30,https://www.mhvillage.com/parks/11134,41.912802,-89.06965
Rolling Green Estates,"100 N Rolling Green Lane,","Rochelle, IL",61068.0,86,https://www.mhvillage.com/parks/11132,41.937329,-89.105673
Country Acres Mobile Manor,"1600 Riverdale Road,","Rock Falls, IL",61071.0,106,https://www.mhvillage.com/parks/11548,41.76590936,-89.73326104
Sauk Valley Estates,"1507 W Rock Falls Rd,","Rock Falls, IL",61071.0,21,https://www.mhvillage.com/parks/127088,41.771842,-89.710647
East Z Living Mobile Home Park,"1507 W Route 30,","Rock Falls, IL",61071.0,Not found,https://www.mhvillage.com/parks/106918,41.77185103,-89.7105257
Riverside Mobile Estates,"901 Regan Road,","Rock Falls, IL",61071.0,400,https://www.mhvillage.com/parks/11552,41.7746257,-71.1491557
Big Elm Mobile Home Park,"502 Beech Street,","Savanna, IL",61074.0,88,https://www.mhvillage.com/parks/10184,42.0837659,-90.1240388
Cordial Court Mobile Home Park,"226 Townline Ave Lot 3B,","South Beloit, IL",61080.0,40,https://www.mhvillage.com/parks/11644,42.49451976,-89.0617864
South Bluff Homes,"666 South Bluff Street,","South Beloit, IL",61080.0,221,https://www.mhvillage.com/parks/11646,37.6762266,-97.2895909
Northgate Estates,"236 Fischer Road,","South Beloit, IL",61080.0,Not found,https://www.mhvillage.com/parks/11645,43.1819008,-88.9752887
Woodlawn Trailer Court,"1501 West 4th Street,","Sterling, IL",61081.0,Not found,https://www.mhvillage.com/parks/11554,41.7905582,-89.7184315
Meridian Manor Mobile Home Park,"7058 East Il Route 72,","Stillman Valley, IL",61084.0,38,https://www.mhvillage.com/parks/11136,42.10913915,-89.19901214
Country Air Mobile Home Estates,"410 South Simmons Street,","Stockton, IL",61085.0,44,https://www.mhvillage.com/parks/10669,42.3485989,-90.0009508
J & J Mobile Home Park,"240 E Carpenter Ave,","Stockton, IL",61085.0,Not found,https://www.mhvillage.com/parks/57680,40.3749518,-76.298277
Zink's Country Court,"531 E Front Ave,","Stockton, IL",61085.0,Not found,https://www.mhvillage.com/parks/107050,42.3499202,-90.0006332
Green Meadows Estates,"4650 South Main Street,","Rockford, IL",61102.0,384,https://www.mhvillage.com/parks/11629,42.2139569,-89.1086317
Green Meadows Estates,"3263 Aquamarine Dr,","Rockford, IL",61102.0,Not found,https://www.mhvillage.com/parks/98849,42.2106845,-89.1009729
Riverview Mobile Home Park,"2530 S Main St,","Rockford, IL",61102.0,96,https://www.mhvillage.com/parks/11638,42.2446361,-89.1096609
Clark's Mobile Home Park,"1500 Linda Avenue,","Rockford, IL",61102.0,36,https://www.mhvillage.com/parks/11628,44.087907,-123.0899442
Ann's Mobile Home Park,"3113 South Main Street,","Rockford, IL",61102.0,Not found,https://www.mhvillage.com/parks/11623,42.2372803,-89.1088526
Cecka Mobile Home Park,"7945 South Main Street,","Rockford, IL",61102.0,Not found,https://www.mhvillage.com/parks/11627,42.2429347,-89.1100446
Rockford Mobile Home Park,"1028 Blue Lake Avenue,","Rockford, IL",61102.0,Not found,https://www.mhvillage.com/parks/11639,29.0424509,-81.2780698
Bill-Mar Heights,"4846 11th Street,","Rockford, IL",61109.0,70,https://www.mhvillage.com/parks/11626,42.2243613,-89.0722766
Mancuso Village Park,"7358 Rydberg Drive,","Rockford, IL",61109.0,130,https://www.mhvillage.com/parks/11632,40.9986866,-78.1652055
"Family Manufactured Home Community, LLC","1418 Sandy Hollow Road,","Rockford, IL",61109.0,55,https://www.mhvillage.com/parks/11622,42.2239056,-89.074712
Maple Leaf Mobile Home Park,"2114 Windsor Road,","Loves Park, IL",61111.0,Not found,https://www.mhvillage.com/parks/11618,42.3256478,-89.0256766
Forest View,"11707 North 2nd Street,","Machesney Park, IL",61115.0,331,https://www.mhvillage.com/parks/104511,42.3861555,-89.0182669
Bel-rock Mobile Home Park,"1520 Glen Forest Drive,","Machesney Park, IL",61115.0,Not found,https://www.mhvillage.com/parks/36902,34.8532353,-82.3419331
Phil-Aire Estates,"917 Glen Forest Drive,","Machesney Park, IL",61115.0,Not found,https://www.mhvillage.com/parks/36471,42.387578,-89.0294593
Rainbow Lane Mobile Home Court,"9305 North 2nd Street,","Machesney Park, IL",61115.0,Not found,https://www.mhvillage.com/parks/11637,42.3619086,-89.038649
"COCR Castle MHP, LLC Rock Island","2300 79th Avenue West,","Rock Island, IL",61201.0,129,https://www.mhvillage.com/parks/11227,41.441236,-90.60021
Shady Acres Mobile Home Park,"403 Sycamore St.,","Albany, IL",61230.0,48,https://www.mhvillage.com/parks/11539,41.7862646,-90.21295943
Hes Mobile Home Park,"709 North College Lane,","Aledo, IL",61231.0,9,https://www.mhvillage.com/parks/11694,29.220361,-99.7680487
Whitehouse Mobile Home Park,"109 South Pearl Street,","Atkinson, IL",61235.0,25,https://www.mhvillage.com/parks/37543,30.3264927,-81.6631273
River Oaks Mobile Home Park,"14415 Barstow Road,","Barstow, IL",61236.0,50,https://www.mhvillage.com/parks/11202,41.2876995,-70.1468712
Whispering Hills,"905 East 3rd Ave,","Coal Valley, IL",61240.0,50,https://www.mhvillage.com/parks/11671,41.4499749,-90.4512548
Candlelight MHP,"1503 West 1st Avenue,","Coal Valley, IL",61240.0,451,https://www.mhvillage.com/parks/11203,25.8354424,-80.2837311
Kershaw Mobile Home Park,"605 W 1st Ave,","Colona, IL",61241.0,108,https://www.mhvillage.com/parks/10577,41.4837044,-90.3664788
Willow Haven Mobile Home Community,"1400 Cleveland Rd,","Colona, IL",61241.0,110,https://www.mhvillage.com/parks/10579,41.4865341,-90.3350462
Mississippi Manufactured Housing Community,"830 1st Avenue,","East Moline, IL",61244.0,201,https://www.mhvillage.com/parks/11208,41.526507,-90.444554
Village on the Avenue,"1040 42nd Avenue,","East Moline, IL",61244.0,Not found,https://www.mhvillage.com/parks/11209,42.2098788,-89.0806477
Dunbar Mobile Home Park,"1214 12th St,","Erie, IL",61250.0,Not found,https://www.mhvillage.com/parks/107130,41.6609633,-90.0782902
East Street Mobile Home Park,"11th St &Amp; E St,","Erie, IL",61250.0,Not found,https://www.mhvillage.com/parks/107396,41.65872799,-90.07980462
"Fulton MHP and Self Storage MHC, LLC","518 24th Ave,","Fulton, IL",61252.0,77,https://www.mhvillage.com/parks/11543,41.8552691,-90.1637275
Green Acres Mobile Estates,"37 Green Acres,","Geneseo, IL",61254.0,39,https://www.mhvillage.com/parks/10581,37.8581222,-122.0878363
Maple City Mobile Home Park,"1 Maple City Trailer Ct,","Geneseo, IL",61254.0,39,https://www.mhvillage.com/parks/10582,41.4468505,-90.164244
Hillsdale Estates,"700 Jackson St,","Hillsdale, IL",61257.0,Not found,https://www.mhvillage.com/parks/106784,41.6088923,-90.1715996
Sun Retreats Rock River,"3333 290th Street North,","Hillsdale, IL",61257.0,489,https://www.mhvillage.com/parks/105837,41.5490556,-90.2173457
Joy Trailer Park,"E Edwards And Drury St,","Joy, IL",61260.0,Not found,https://www.mhvillage.com/parks/107052,41.20101544,-90.87712959
Valley Vista Estates,"9581 Pine Drive,","Lyndon, IL",61261.0,100,https://www.mhvillage.com/parks/11545,41.7229979,-89.9130323
Woodland Mobile Home Park,"1511 Coyne Center Road,","Milan, IL",61264.0,248,https://www.mhvillage.com/parks/11222,41.4084384,-90.5672508
High Cliff Estates,"1701 2nd Street East,","Milan, IL",61264.0,224,https://www.mhvillage.com/parks/11217,41.434506,-90.566187
Paradise Manor Mobile Estates,"8619 Knoxville Road,","Milan, IL",61264.0,78,https://www.mhvillage.com/parks/11220,32.7738154,-83.82834
Airview Mobile Home Park,"5111 78th Avenue,","Milan, IL",61264.0,126,https://www.mhvillage.com/parks/11213,41.44090391,-90.52314401
Mill Creek Mobile Home Park,"730 1st Avenue East,","Milan, IL",61264.0,Not found,https://www.mhvillage.com/parks/11218,33.8355199,-84.8422323
Oak Grove Mobile Home Park,"10620 1st Street West,","Milan, IL",61264.0,Not found,https://www.mhvillage.com/parks/11219,41.4134402,-90.5708944
Shady Lane Mobile Home Park,"652 10th Avenue West,","Milan, IL",61264.0,Not found,https://www.mhvillage.com/parks/11221,33.5182445,-86.8478806
Cloverleaf Village,"4515 34th Street,","Moline, IL",61265.0,291,https://www.mhvillage.com/parks/11223,41.4686443,-90.4910291
L and G Mobile Home Park,"3814 29th Street,","Moline, IL",61265.0,Not found,https://www.mhvillage.com/parks/57813,41.4747696,-90.4976885
Honeycutt Hill Mobile Home Park,"13964 Round Grove Rd,","Morrison, IL",61270.0,Not found,https://www.mhvillage.com/parks/106858,41.7861266,-89.8721293
Falcon Farms,"2507 214th Street North,","Port Byron, IL",61275.0,215,https://www.mhvillage.com/parks/11678,41.5399784,-90.3255428
Silvis Heights MHP,"1309 1st St,","Silvis, IL",61282.0,Not found,https://www.mhvillage.com/parks/107080,41.4962558,-90.4247021
Blossom Mobile Home Park,"2705 Saint Vincents Avenue,","La Salle, IL",61301.0,60,https://www.mhvillage.com/parks/10742,41.3561942,-89.0965042
The Meadows,"16 West Wasson,","Amboy, IL",61310.0,95,https://www.mhvillage.com/parks/10837,41.7222883,-89.3350003
O'Connell's RV Resort,"970 Green Wing Road,","Amboy, IL",61310.0,636,https://www.mhvillage.com/parks/10838,41.7260463,-89.2672784
Hilltop Mobile Home Court,"235 North Rock Island Stret,","Bureau, IL",61315.0,Not found,https://www.mhvillage.com/parks/10172,41.28991467,-89.36489996
Oak Park Estates,"218 School Road,","Granville, IL",61326.0,150,https://www.mhvillage.com/parks/11171,41.26325533,-89.23127851
Belle Aire Estates,"823 Belle Aire Street,","Marseilles, IL",61341.0,73,https://www.mhvillage.com/parks/10745,33.4165767,-91.0496864
Whispering Pines Campground,"2776 East 2625th Road,","Marseilles, IL",61341.0,Not found,https://www.mhvillage.com/parks/10744,41.335765,-88.664347
Mendota Mobile Home Park,"111 South 13th Avenue,","Mendota, IL",61342.0,75,https://www.mhvillage.com/parks/10752,41.5404483,-89.124833
Oglesby MHC,"641 W Walnut St,","Oglesby, IL",61348.0,40,https://www.mhvillage.com/parks/10753,41.2949713,-89.0694547
The Oaks,"312 California Ave,","Oglesby, IL",61348.0,Not found,https://www.mhvillage.com/parks/57772,41.2976791,-89.0541135
Starlight Mobile Home Park,"1931 Champlain St,","Ottawa, IL",61350.0,20,https://www.mhvillage.com/parks/10134,45.5102285,-75.2029341
Ottawa Estates Mobile Home Park,"1570 N 30th Rd Unit O,","Ottawa, IL",61350.0,100,https://www.mhvillage.com/parks/10761,41.36863745,-88.85216994
Kings Mobile Home Court,"1001 Evans St,","Ottawa, IL",61350.0,Not found,https://www.mhvillage.com/parks/57762,41.3612263,-88.8545803
Thrush Mobile Home Park,"1626 Columbus St,","Ottawa, IL",61350.0,Not found,https://www.mhvillage.com/parks/57759,29.97128,-90.0675964
Hillview Mobile Home Park,"333 Hillview Drive,","Princeton, IL",61356.0,78,https://www.mhvillage.com/parks/11662,38.0904026,-85.7605059
The Grove Mobile Home Pak,"Briar Lane,","Princeton, IL",61356.0,43,https://www.mhvillage.com/parks/10175,51.3661751,-0.023259
Maple Acres Mobile Home Park,"2137 Westmore Drive,","Princeton, IL",61356.0,99,https://www.mhvillage.com/parks/10177,35.3177346,-97.5197098
Country Acres Estates,"2464 East 29th Road,","Seneca, IL",61360.0,125,https://www.mhvillage.com/parks/10767,41.1046606,-97.8347898
Green Tree Mobile Home Park,"430 Crotty Ln,","Seneca, IL",61360.0,Not found,https://www.mhvillage.com/parks/106876,41.3188071,-88.613181
Carriage Lane Estates,"1913 Barr Street,","Streator, IL",61364.0,134,https://www.mhvillage.com/parks/10776,41.0681365,-85.1348151
Independence Mh Community,"427 W Frech St,","Streator, IL",61364.0,15,https://www.mhvillage.com/parks/57677,41.1399703,-88.8417711
North Gate Mh Park,"1732 N Baker St,","Streator, IL",61364.0,Not found,https://www.mhvillage.com/parks/57678,33.7605473,-117.8826124
Southtown,"1814 Carr St,","Streator, IL",61364.0,Not found,https://www.mhvillage.com/parks/107318,29.7777914,-95.3448087
Kimberly Terrace,"3053 Grand Ave.,","Galesburg, IL",61401.0,129,https://www.mhvillage.com/parks/10729,40.9398889,-90.3437971
Country Elms,"654 Us Highway 150 E.,","Galesburg, IL",61401.0,177,https://www.mhvillage.com/parks/10728,35.0944629,-85.6315981
Century Mobile home Estates,"701 Wisconsin Avenue,","Galesburg, IL",61401.0,Not found,https://www.mhvillage.com/parks/10726,41.615839,-93.610062
Country Air Mobile Park,"835 Wisconsin Avenue,","Galesburg, IL",61401.0,Not found,https://www.mhvillage.com/parks/10727,42.7433068,-84.5630781
Swing's Mobile Estates,"2135 Swing Boulevard,","Galesburg, IL",61401.0,Not found,https://www.mhvillage.com/parks/10733,40.9306237,-90.4037946
Sandburg Lake Estates,"80 Herring Avenue,","Galesburg, IL",61401.0,200,https://www.mhvillage.com/parks/10732,31.5740972,-97.1463975
Rolling Meadows Mobile Home Park,"301 East Street,","Abingdon, IL",61410.0,72,https://www.mhvillage.com/parks/10724,40.801443,-90.394249
Bushnell Country Gardens,"601 E Osborne St,","Bushnell, IL",61422.0,64,https://www.mhvillage.com/parks/27867,40.553696,-90.498563
Sentry Estates,"921 SE 2nd St,","Galva, IL",61434.0,Not found,https://www.mhvillage.com/parks/57897,41.7302698,-93.5838779
Reecy's Mobile Home Park,"835 West 6th Street,","Kewanee, IL",61443.0,100,https://www.mhvillage.com/parks/10584,30.2705392,-97.752351
Southwind Mobile Estates,"602 Cole Street,","Kewanee, IL",61443.0,72,https://www.mhvillage.com/parks/10585,39.5665958,-76.0730516
East Main Trailer Park,"1008 E Main St,","Knoxville, IL",61448.0,Not found,https://www.mhvillage.com/parks/57847,40.9078215,-90.2642614
Kiljordan Meadows,"1601 East Jackson Street,","Macomb, IL",61455.0,173,https://www.mhvillage.com/parks/11034,40.4587282,-90.6694754
Greenview Estates Mobile Home Park,"1400 South Johnson Street,","Macomb, IL",61455.0,79,https://www.mhvillage.com/parks/11031,35.1981055,-101.831644
Country Aire Estates,"9825 Us Highway 136,","Macomb, IL",61455.0,50,https://www.mhvillage.com/parks/11029,40.44953311,-90.71746014
Derry's Mobile Home Court,"1513 East Jackson Street,","Macomb, IL",61455.0,Not found,https://www.mhvillage.com/parks/11030,33.4450721,-112.0495359
Heaps Mobile Home Park,"1718 W Jackson St,","Macomb, IL",61455.0,Not found,https://www.mhvillage.com/parks/57832,40.4592191,-90.698877
Moon Valley Mobile Park,"836 N Randolph St,","Macomb, IL",61455.0,Not found,https://www.mhvillage.com/parks/57831,39.9673791,-75.1465106
Raintree Mobile Home Park,"48 Raintree Trailer Court,","Macomb, IL",61455.0,Not found,https://www.mhvillage.com/parks/11038,40.45125686,-90.6867675
Shade Tree Village Mobile Home Park,"1507 East Jackson Street,","Macomb, IL",61455.0,Not found,https://www.mhvillage.com/parks/11028,33.4450705,-112.049648
Washington Park MHP,"1215 E Washington St,","Macomb, IL",61455.0,Not found,https://www.mhvillage.com/parks/106992,40.4573646,-90.6559959
Western Mobile Home Park,"821 South Ward Street,","Macomb, IL",61455.0,Not found,https://www.mhvillage.com/parks/11039,35.2534972,-81.181236
E-Z Mobile Home Park,"1302 South Main Street,","Monmouth, IL",61462.0,20,https://www.mhvillage.com/parks/11519,40.8972351,-90.6487414
Cokel's Mobile Home Park,"1020 West 6th Avenue,","Monmouth, IL",61462.0,Not found,https://www.mhvillage.com/parks/11518,32.0884427,-96.4730665
Shady Lakes Campground,"3355 75Thâ Ave,","New Windsor, IL",61465.0,342,https://www.mhvillage.com/parks/128140,41.17313065,-90.44859086
W J Mobile Home Park,"524 E Jefferson St,","Toulon, IL",61483.0,Not found,https://www.mhvillage.com/parks/57663,41.0927608,-89.8571736
Esquire Estates Mobile Home Park,"1 Esquire Est,","Brimfield, IL",61517.0,Not found,https://www.mhvillage.com/parks/11145,45.4708909,-75.5237788
Woodland Hills Land Lease Community,"1100 W Locust St.,","Canton, IL",61520.0,131,https://www.mhvillage.com/parks/10534,40.56032,-90.060864
Five Sisters Trailer Park,"205 N Ave I,","Canton, IL",61520.0,Not found,https://www.mhvillage.com/parks/10527,40.5582086,-90.0571686
Lake Drive Mobile Home Park,"1648 East Chestnut Street,","Canton, IL",61520.0,Not found,https://www.mhvillage.com/parks/10531,40.5569803,-90.0083771
Lake Drive Park,"24387 N Carver Rd,","Canton, IL",61520.0,Not found,https://www.mhvillage.com/parks/58054,40.5446159,-89.9909861
Wagon Wheel Mobile Home Ranch,"900 W Walnut St,","Canton, IL",61520.0,Not found,https://www.mhvillage.com/parks/58053,40.55202966,-90.05610347
Pinewood Estates,"100 Pinewood Estates,","Chillicothe, IL",61523.0,206,https://www.mhvillage.com/parks/11141,44.580453,-72.604982
Chillicothe Mobile Home Park,"611 W Matthew St,","Chillicothe, IL",61523.0,37,https://www.mhvillage.com/parks/11140,40.92978485,-89.49006076
Davis' Mobile Home Park,"1513 N 4th St,","Chillicothe, IL",61523.0,Not found,https://www.mhvillage.com/parks/11137,40.9260324,-89.4862654
Maplewood Mobile Estates,"1100 W Sturgeon Ln,","Chillicothe, IL",61523.0,Not found,https://www.mhvillage.com/parks/57996,40.9241738,-89.4991014
Northtown Mobile Home Park,"1706 N Santa Fe Ave,","Chillicothe, IL",61523.0,Not found,https://www.mhvillage.com/parks/11139,36.1787997,-96.0089094
Enchanted Gardens,"508 Reagan Drive,","Eureka, IL",61530.0,144,https://www.mhvillage.com/parks/11655,40.241827,-79.4499145
sold,"101 W. Pearl St.,","Farmington, IL",61531.0,55,https://www.mhvillage.com/parks/10538,40.703678,-90.007054
Autumn Ridge Estates,"420 Abens Ave,","Henry, IL",61537.0,57,https://www.mhvillage.com/parks/11010,41.0940234,-89.4017934
Washington Square Mhc Inc,"900 Washington St,","Lacon, IL",61540.0,33,https://www.mhvillage.com/parks/70201,41.0167391,-89.4115007
EEE Mobile Village,"16088 E Us 24 Highway,","Lewistown, IL",61542.0,Not found,https://www.mhvillage.com/parks/107042,40.39391492,-90.14183923
Maple Crest Subdivision,"Cr 800,","Manito, IL",61546.0,300,https://www.mhvillage.com/parks/11018,33.5121068,-81.4469259
Broadview Communities Lake Wildwind,"103 Hollyhock Lane,","Metamora, IL",61548.0,140,https://www.mhvillage.com/parks/11658,36.1736091,-115.1768938
Tuckaway Village,"212 Anker Lane,","Germantown Hills, IL",61548.0,107,https://www.mhvillage.com/parks/30090,40.766233,-89.476476
Edgewood Terrace,"24150 Veterans Road,","Morton, IL",61550.0,124,https://www.mhvillage.com/parks/11445,40.6617611,-89.5040048
Oak Lawn Estates,"3000 West Jackson Street,","Morton, IL",61550.0,470,https://www.mhvillage.com/parks/86,40.6142873,-89.4615737
Pekin Trailer Court,"1810 North 8th Street,","Pekin, IL",61554.0,Not found,https://www.mhvillage.com/parks/11449,40.5857372,-89.6409842
Northwest Mh Park,"217 N Stanton St,","Princeville, IL",61559.0,Not found,https://www.mhvillage.com/parks/57738,45.5438053,-122.6684667
Deluxe Lake Estates,"338 North Amy Dr.,","Bellevue, IL",61604.0,131,https://www.mhvillage.com/parks/28560,40.6913769,-89.6874605
Royal Oaks Estates,"2109 N Abbey Circle,","Peoria, IL",61604.0,585,https://www.mhvillage.com/parks/11149,40.71322581,-89.64686011
Four Seasons,"208 N Apple Blossom,","Peoria, IL",61604.0,215,https://www.mhvillage.com/parks/11146,35.0551301,-92.4619237
Wandering Springs,"2900 W Farmington Rd,","West Peoria, IL",61604.0,98,https://www.mhvillage.com/parks/57627,40.7040397,-89.6383797
Cedar Ridge Village,"701 Fischer Road,","Creve Coeur, IL",61610.0,340,https://www.mhvillage.com/parks/11435,40.6342963,-89.6003474
Mill Point,"310 Ash Lane,","East Peoria, IL",61611.0,80,https://www.mhvillage.com/parks/11648,39.2365755,-94.9059269
Springfield Court,"2506 Springfield Rd #8,","East Peoria, IL",61611.0,Not found,https://www.mhvillage.com/parks/107352,40.63367202,-89.55572937
Broadview Estates East Peoria,"1085 Spring Bay Road,","East Peoria, IL",61611.0,148,https://www.mhvillage.com/parks/11439,40.7435129,-89.5222694
Bluff Street Mobile Home Manor,"300 West Bluff Street,","East Peoria, IL",61611.0,Not found,https://www.mhvillage.com/parks/11436,40.666689,-89.5469243
Fairview Mobile Home Park,"108 Fairview Avenue,","East Peoria, IL",61611.0,Not found,https://www.mhvillage.com/parks/11438,40.6679369,-89.5697458
Golden Valley Mobile Home Park,"1449 Meadow Avenue,","East Peoria, IL",61611.0,Not found,https://www.mhvillage.com/parks/37022,44.9945461,-122.7570862
Hiatt's Hide-Away,"119 Hiatt Ln,","East Peoria, IL",61611.0,Not found,https://www.mhvillage.com/parks/106688,36.3289036,-81.4279926
Wagon Wheel Mobile Home Park,"800 Bloomington Road,","East Peoria, IL",61611.0,Not found,https://www.mhvillage.com/parks/11440,43.9684364,-79.4336875
Royal Highlander MHC,"826 West Inverness Street,","Peoria, IL",61615.0,279,https://www.mhvillage.com/parks/11153,40.7912081,-89.605629
Mt Hawley Mobile Home Park,"8327 North Knoxville Avenue,","Peoria, IL",61615.0,Not found,https://www.mhvillage.com/parks/11151,40.7901326,-89.6044476
Grandview Estates,"39 Dennis Drive,","Bloomington, IL",61701.0,191,https://www.mhvillage.com/parks/11052,42.3520361,-72.5221609
Maple Grove Estates,"1212 Epsilon Street,","Bloomington, IL",61701.0,218,https://www.mhvillage.com/parks/11056,29.6383701,-95.1902857
Prairieland Estates Mobile Home Community,"31 Cornflower Lane,","Bloomington, IL",61701.0,103,https://www.mhvillage.com/parks/27866,40.8634658,-73.3013593
Willow Creek North Mobile Home Park,"40 Canada Ln,","Bloomington, IL",61701.0,120,https://www.mhvillage.com/parks/11061,40.469225,-89.020131
Twin City Estates,"2317 Springfield Road,","Bloomington, IL",61701.0,Not found,https://www.mhvillage.com/parks/31781,40.453137,-89.012182
Greenwood Terrace,"104 Greenwood Ave,","Bloomington, IL",61704.0,97,https://www.mhvillage.com/parks/11053,39.9863909,-83.0073435
Alexander Estates,"Alexander Road,","Bloomington, IL",61704.0,330,https://www.mhvillage.com/parks/11051,51.5624051,-0.1222617
Cardinal Ridge,"2402 22nd Street,","Bloomington, IL",61704.0,364,https://www.mhvillage.com/parks/11060,40.4474736,-88.9871034
Prairie Place,"3710 Daffodil Drive,","Bloomington, IL",61704.0,38,https://www.mhvillage.com/parks/31415,34.1085696,-84.6034813
Hilltop Mobile Home Park,"1902 South Main Street,","Bloomington, IL",61704.0,557,https://www.mhvillage.com/parks/11055,40.458365,-88.9926869
Hillcrest Mobile Manor,"122 Greenwood Ave,","Bloomington, IL",61704.0,80,https://www.mhvillage.com/parks/11054,39.9863993,-83.0074943
South Park,"Grace Dr,","Bloomington, IL",61704.0,38,https://www.mhvillage.com/parks/129761,51.4632041,-2.4878069
Meadows Of Bloomington,"102 Filbert Drive,","Bloomington, IL",61705.0,190,https://www.mhvillage.com/parks/11057,42.0241792,-88.1572334
Sherman's Mh Court,"600 Sixth St,","Atlanta, IL",61723.0,21,https://www.mhvillage.com/parks/10865,28.6702825,-81.4987619
Autumn Oaks,"507 Hoselton Dr.,","Chenoa, IL",61726.0,100,https://www.mhvillage.com/parks/11693,40.7426078,-88.7320141
All Seasons,"104 Enterprise Dr,","Chenoa, IL",61726.0,Not found,https://www.mhvillage.com/parks/106788,62.4263155,-114.4238283
Huffman Mobile Home Park,"Rural Route #Q,","Midland City, IL",61727.0,Not found,https://www.mhvillage.com/parks/107070,38.7855645,20.6174584
Ridgeview Mobile Home Park,"R.r. 2 -Il Route 51,","South Clinton, IL",61727.0,Not found,https://www.mhvillage.com/parks/107062,40.13731455,-88.97445781
South Cooksville Mobile Home Park,"Rr 1 Box 110,","Cooksville, IL",61730.0,9,https://www.mhvillage.com/parks/11063,40.54322452,-88.71640708
Charlotte's Trailer Court,"475 East Jefferson Street,","El Paso, IL",61738.0,14,https://www.mhvillage.com/parks/11649,44.3504481,-117.2610457
El Paso Mobile Home Court,"South Commercial St,","El Paso, IL",61738.0,Not found,https://www.mhvillage.com/parks/106962,32.7587351,-97.3458541
Heartland Properties MHP,"Main St And Orange St,","El Paso, IL",61738.0,Not found,https://www.mhvillage.com/parks/107232,40.7352804,-89.00765708
Kilpatrick's Mobile Home Park,"397 South Fayette Street,","El Paso, IL",61738.0,Not found,https://www.mhvillage.com/parks/11651,38.8024094,-77.0532032
Kils Mobile Home Park,"397 S Fayette,","El Paso, IL",61738.0,Not found,https://www.mhvillage.com/parks/107102,42.8433022,-91.802268
Tegard Trailer Park,"75 S Oak St,","El Paso, IL",61738.0,Not found,https://www.mhvillage.com/parks/107066,40.736403,-89.0055923
Indian Grove Estates,"700 East Locust Street,","Fairbury, IL",61739.0,22,https://www.mhvillage.com/parks/10854,43.2191706,-75.4417576
Timberline Mobile Home Park,"7 Pynes Drive,","Goodfield, IL",61742.0,103,https://www.mhvillage.com/parks/31480,40.642288,-89.255587
Yogi Bear Jellystone Campground,"Timberline Road,","Goodfield, IL",61742.0,Not found,https://www.mhvillage.com/parks/11657,-37.7535631,145.5384339
Eastern Drive Park,"Eastern Dr,","Gridley, IL",61744.0,Not found,https://www.mhvillage.com/parks/106996,49.2430964,-122.776169
Swanzy's Trailer Park,"509 South Buchanan Place,","Heyworth, IL",61745.0,16,https://www.mhvillage.com/parks/11071,46.2045541,-119.1881009
Country Lane Mobile Home Park,"425 North Rd,","Heyworth, IL",61745.0,30,https://www.mhvillage.com/parks/11069,40.3120572,-88.9818637
Coomer's Mobile Home Park,"208 E Pease St,","Heyworth, IL",61745.0,Not found,https://www.mhvillage.com/parks/107246,40.3164988,-88.975966
Highway Inn Trailer Court,"9051 Bucks Rd,","Heyworth, IL",61745.0,Not found,https://www.mhvillage.com/parks/107266,39.9238307,-121.0860888
Peterson Mh Court,"303 N Vine St,","Heyworth, IL",61745.0,Not found,https://www.mhvillage.com/parks/57860,40.3161392,-88.9800395
Marcum's Trailer Court,"208 W Vine St,","Leroy, IL",61752.0,29,https://www.mhvillage.com/parks/105360,40.34327201,-88.76351408
King City Mobile Home Park,"612 West Vine Street,","Le Roy, IL",61752.0,Not found,https://www.mhvillage.com/parks/11072,43.0540677,-87.9189792
Marcums Trailer Court,"208 West Vine Street,","Le Roy, IL",61752.0,Not found,https://www.mhvillage.com/parks/11073,43.0540413,-87.913148
Westwind Estates,"25101 South Main,","Lexington, IL",61753.0,Not found,https://www.mhvillage.com/parks/69151,40.34455675,-88.76293927
Countryside Estates,"Davis,","Mackinaw, IL",61755.0,46,https://www.mhvillage.com/parks/11441,40.7474784,-92.3965311
Northwood Mobile Estates,"602 North Wood Street,","Maroa, IL",61756.0,66,https://www.mhvillage.com/parks/10896,32.3560705,-97.393937
Landings Estates,"1901 North Linden Street,","Normal, IL",61761.0,288,https://www.mhvillage.com/parks/11077,40.538862,-88.98361
Northmeadow Village,"856 A Street,","Normal, IL",61761.0,274,https://www.mhvillage.com/parks/11078,32.7189523,-117.1569567
Royal Acres Manufactured Home & RV Community,"605 Pine Street,","Normal, IL",61761.0,138,https://www.mhvillage.com/parks/11080,40.5176731,-88.9777427
Redwood MHC,"15242 East 1830 North Road,","Pontiac, IL",61764.0,Not found,https://www.mhvillage.com/parks/10860,40.8923375,-88.6371797
Vermillion Estates,"1225 4H Park Road,","Pontiac, IL",61764.0,140,https://www.mhvillage.com/parks/10863,40.7049187,-89.2688048
Oakridge Park,"1037 East Water Street,","Pontiac, IL",61764.0,Not found,https://www.mhvillage.com/parks/10859,38.0275847,-78.4725874
Sandy Creek Estates,"601 W Lincoln Ave,","Pontiac, IL",61764.0,Not found,https://www.mhvillage.com/parks/106928,40.8869368,-88.6346265
Kinsell Mobile Home Park,"410 East Lincoln Street,","Saybrook, IL",61770.0,Not found,https://www.mhvillage.com/parks/11081,42.4522584,-76.4958556
Neighbors of Hickory Hill,"973 County Road 2250,","Secor, IL",61771.0,Not found,https://www.mhvillage.com/parks/129184,40.5698893,-96.9598461
"Wilsons on University MHC, LLC","1746 Wilson Road,","Urbana, IL",61801.0,42,https://www.mhvillage.com/parks/10264,40.1165532,-88.1840964
Rock Park,"Main,","Urbana, IL",61801.0,15,https://www.mhvillage.com/parks/10260,49.9354788,9.8058264
Carriage Estates (Chief Illini),"63 1/2 Shemauger Trail,","Urbana, IL",61802.0,64,https://www.mhvillage.com/parks/10246,40.1190681,-88.1773692
"Carriage Estates MHC, LLC","58 Bridle Lane,","Urbana, IL",61802.0,57,https://www.mhvillage.com/parks/10245,40.7569112,-73.541288
"Ivanhoe Estates MHC, LLC","26 Ivanhoe Drive,","Urbana, IL",61802.0,336,https://www.mhvillage.com/parks/10253,40.6588876,-73.5604133
"Liberty Estate Commons MHC, LLC","1776 Independence,","Urbana, IL",61802.0,433,https://www.mhvillage.com/parks/74639,40.13438365,-88.18747473
"Surbana Estates MHC, LLC","101 Dewey Street,","Urbana, IL",61802.0,95,https://www.mhvillage.com/parks/10262,40.787669,-73.5444527
"Woods Edge MHC, LLC","202 Apple Tree Drive,","Urbana, IL",61802.0,170,https://www.mhvillage.com/parks/10265,44.6622293,-72.8579826
"Northwood Estates MHC, LLC","5 Northwood Circle,","Urbana, IL",61802.0,113,https://www.mhvillage.com/parks/10258,30.3574161,-89.1863231
"Spruce Commons MHC, LLC","1 Fern St.,","Urbana, IL",61802.0,34,https://www.mhvillage.com/parks/110926,51.5211417,-0.0192719
"Surbana Estates MHC, LLC (Trailside)","2410 E. Main Street,","Urbana, IL",61802.0,16,https://www.mhvillage.com/parks/104881,40.1128755,-88.1756975
Woodland Acres,"2200 East University Avenue,","Urbana, IL",61802.0,93,https://www.mhvillage.com/parks/31959,40.1158366,-88.1835374
Powells Mobile Home Park,"2608 Brownfield Rd,","Urbana, IL",61802.0,26,https://www.mhvillage.com/parks/57654,39.925516,-82.8501607
Arleen Trailer Park,"2602 Brownfield Rd,","Urbana, IL",61802.0,Not found,https://www.mhvillage.com/parks/57660,39.9256563,-82.8501527
Country View Estates,"1604 East Olympian Road,","Urbana, IL",61802.0,Not found,https://www.mhvillage.com/parks/10249,40.156705,-88.1630281
Ehler's Trailer Park,"3711 North Cunningham Avenue,","Urbana, IL",61802.0,Not found,https://www.mhvillage.com/parks/10250,40.1532608,-88.1842994
Country Manor Mh Park,"1513 County Road 2300 N,","Urbana, IL",61802.0,Not found,https://www.mhvillage.com/parks/57658,39.0708251,-88.9729145
Sunny Oak Mobile Home Park,"27644 N 1700 E Rd,","Bismarck, IL",61814.0,36,https://www.mhvillage.com/parks/11456,40.26621149,-87.6230825
Shadowwood Mobile Home Park,"1600 North Market Street,","Champaign, IL",61820.0,272,https://www.mhvillage.com/parks/10207,32.5381905,-93.7707756
"Edgebrook Estates MHC, LLC","515 Edgebrook Drive,","Champaign, IL",61820.0,47,https://www.mhvillage.com/parks/10203,29.6455216,-95.2259088
Country Tyme Estates,"1301 East Leverett Road #31,","Champaign, IL",61821.0,44,https://www.mhvillage.com/parks/10202,42.4204861,-72.5074002
New Century Estates,"4809 West Windsor Road,","Champaign, IL",61822.0,169,https://www.mhvillage.com/parks/10206,47.628341,-117.4810229
Frazier Acres,"537 Country Rd 1600 N,","Champaign, IL",61822.0,Not found,https://www.mhvillage.com/parks/106838,40.11294093,-88.36321608
Thomas Mobile Home Park,"55 Greenwood Cemetery Road,","Danville, IL",61832.0,25,https://www.mhvillage.com/parks/11480,40.106267,-87.621521
Coach Light Mobile Home Park,"12 Coachlight Drive,","Danville, IL",61832.0,44,https://www.mhvillage.com/parks/11459,42.1982713,-79.2506443
St Clair Mobile Home Park,"1237 Perrysville Road,","Danville, IL",61832.0,50,https://www.mhvillage.com/parks/11478,40.7020385,-82.4148232
Danville Mobile Home Park,"1202 Perrysville Avenue,","Danville, IL",61832.0,110,https://www.mhvillage.com/parks/11462,39.985458,-87.62766
Danville Mobile Home Park,"300 Spelter Avenue,","Danville, IL",61832.0,90,https://www.mhvillage.com/parks/11473,40.076009,-87.639588
Big Rock Mobile Home Court,"1362 W. Williams Street,","Danville, IL",61832.0,Not found,https://www.mhvillage.com/parks/11457,40.1344443,-87.6526684
Castleberrys Pondview Mh Park,"310 Blackford St,","Danville, IL",61832.0,Not found,https://www.mhvillage.com/parks/57958,39.7718221,-86.1702347
Coachlight Mobile Home Park,"1 Coachlight Dr,","Danville, IL",61832.0,Not found,https://www.mhvillage.com/parks/57662,42.197912,-79.252392
Cornells Mh Park,"806 Perrysville Ave,","Danville, IL",61832.0,Not found,https://www.mhvillage.com/parks/57957,40.1145411,-87.6152182
Glen Ayre Mobile Home Park,"540 E 14th St,","Danville, IL",61832.0,Not found,https://www.mhvillage.com/parks/106990,40.10157983,-87.61845923
Long's Mobile Home Park,"1330 West Williams Street,","Danville, IL",61832.0,Not found,https://www.mhvillage.com/parks/11458,43.5908304,-116.1978137
Shelby Mobile Home Park,"204 East Hegeler Lane,","Danville, IL",61832.0,Not found,https://www.mhvillage.com/parks/11469,40.0757122,-87.6311489
Glendale Mobile Home Park,"1831 Perrysville Road,","Danville, IL",61834.0,84,https://www.mhvillage.com/parks/11467,40.1077708,-87.5956875
Valley Run Mobile Home Park,"1800 Perrysville Road,","Danville, IL",61834.0,60,https://www.mhvillage.com/parks/11481,40.108821,-87.595047
Pals Mobile Home Park,"701 S Griffin St,","Danville, IL",61834.0,Not found,https://www.mhvillage.com/parks/57949,40.115433,-87.602147
Joanna's Kountry Kourt,"14113 Murray Clark Rd,","Danville, IL",61834.0,Not found,https://www.mhvillage.com/parks/107204,40.07456185,-87.61067746
Deeter's Mobile Estates,"433 West Clinton Avenue,","Farmer City, IL",61842.0,Not found,https://www.mhvillage.com/parks/10456,36.7719933,-119.8169134
Shepherd Mobile Estates,"40 Glenbrook Lane,","Fisher, IL",61843.0,Not found,https://www.mhvillage.com/parks/10208,42.2880676,-71.8500776
Neild's Mobile Manor,"1710 N Main St,","Georgetown, IL",61846.0,Not found,https://www.mhvillage.com/parks/11485,39.99079413,-87.63782704
Shelbys Mh Park,"710 Mill Rd,","Georgetown, IL",61846.0,Not found,https://www.mhvillage.com/parks/57895,39.978487,-87.62408936
Camelot Estates,"2380 County Road 3100 N,","Gifford, IL",61847.0,11,https://www.mhvillage.com/parks/57893,39.1872082,-88.8209214
Candlewood Estates,"808 North Prairie View Road,","Mahomet, IL",61853.0,650,https://www.mhvillage.com/parks/10211,40.20539625,-88.36495743
Carriage Estates Mobile Home Park,"601 Carriage Drive,","Monticello, IL",61856.0,26,https://www.mhvillage.com/parks/11167,36.125397,-80.261351
Monroe Street Mobile Home Park,"353 West Monroe Street,","Monticello, IL",61856.0,Not found,https://www.mhvillage.com/parks/11168,43.050786,-74.8745724
Cramer Trailer Haven,"6 Carter Dr,","Oakwood, IL",61858.0,Not found,https://www.mhvillage.com/parks/57775,35.015366,-108.2961725
Lawndale Mh Park,"2630 Batestown Rd,","Oakwood, IL",61858.0,Not found,https://www.mhvillage.com/parks/57774,40.1181384,-87.7071213
Lake Bluff Mobile Home Park,"20 Pattie Dr,","Oakwood, IL",61858.0,123,https://www.mhvillage.com/parks/11497,41.3603809,-81.8739554
Maplewood Estates,"1300 North Maplewood Drive,","Rantoul, IL",61866.0,112,https://www.mhvillage.com/parks/10224,40.3161207,-88.1365038
Fountain Valley,"1 Fountain Valley,","Rantoul, IL",61866.0,190,https://www.mhvillage.com/parks/10218,40.281206,-88.169653
"Heritage Meadows MHC, LLC","600 South Maplewood Drive,","Rantoul, IL",61866.0,227,https://www.mhvillage.com/parks/10219,43.592408,-84.275667
Rancho Rantoul Estates,"8 Mahoning Avenue,","Rantoul, IL",61866.0,2,https://www.mhvillage.com/parks/128982,41.4857259,-81.6799195
Abe's Estates,"1140 North Century Boulevard,","Rantoul, IL",61866.0,Not found,https://www.mhvillage.com/parks/10213,40.3215163,-88.1538866
Eastside Mobile Home Village,"1938 County Road 3000 N,","Rantoul, IL",61866.0,Not found,https://www.mhvillage.com/parks/10216,40.3125183,-88.0905789
Youngstown Estates,"2 Mahoning Avenue,","Rantoul, IL",61866.0,Not found,https://www.mhvillage.com/parks/10220,41.485726,-81.679911
Cooper Estates,"County Rd 1600 N,","Seymour, IL",61875.0,16,https://www.mhvillage.com/parks/11720,40.10234285,-88.41606146
G&C Estates,"107 N Grant,","Seymour, IL",61875.0,Not found,https://www.mhvillage.com/parks/107046,40.1063734,-88.4283111
Westview Manor,"Sheridan Center-West St,","Seymour, IL",61875.0,Not found,https://www.mhvillage.com/parks/107058,39.948852,-75.1553921
Horizon Estates Mh Park,"900 W Central Ave,","Thomasboro, IL",61878.0,Not found,https://www.mhvillage.com/parks/57666,40.238857,-88.195554
The Oaks MHP,"90 The Oaks,","Tolono, IL",61880.0,126,https://www.mhvillage.com/parks/10241,53.4461893,-6.2442272
Pleasant Plains Mobile Home Park,"790 County Road 800 North,","Tolono, IL",61880.0,22,https://www.mhvillage.com/parks/10242,39.3181473,-85.9359392
Country Aire Mobile Home Park,"16572 East 1200 North Road,","Westville, IL",61883.0,Not found,https://www.mhvillage.com/parks/11500,40.042529,-87.627888
Atwood MHC West,"302 S Indiana St,","Atwood, IL",61913.0,Not found,https://www.mhvillage.com/parks/107294,39.8026149,-88.4656688
North Side Mobile Home Park,"18 N First St,","Bethany, IL",61914.0,Not found,https://www.mhvillage.com/parks/106974,39.65119054,-88.74233616
University Estates,"775 W. Elm Ave.,","Charleston, IL",61920.0,98,https://www.mhvillage.com/parks/10317,39.5022782,-88.195325
Longacre Estates,"530 Reynolds Dr., #137,","Charleston, IL",61920.0,124,https://www.mhvillage.com/parks/10312,40.4484956,-86.1246966
Eastern Estates,"505 North Division Street,","Charleston, IL",61920.0,125,https://www.mhvillage.com/parks/10314,47.3120366,-122.2303034
Brooks Mh Park,"513 Reynolds Dr,","Charleston, IL",61920.0,Not found,https://www.mhvillage.com/parks/58008,38.2437716,-122.6201299
Fairview Mh Park,"617 W State St,","Charleston, IL",61920.0,Not found,https://www.mhvillage.com/parks/10310,39.4991171,-88.1900811
Mercer Mobile Home Court,"1600 Tyler Ave,","Charleston, IL",61920.0,Not found,https://www.mhvillage.com/parks/10313,37.1228337,-80.5366791
Shady Point Mobile Home Court,"520 W Madison Ave,","Charleston, IL",61920.0,Not found,https://www.mhvillage.com/parks/58003,39.4959476,-88.1874592
Slifer's Rancho Mobile Home Park,"1801 Madison Avenue,","Charleston, IL",61920.0,Not found,https://www.mhvillage.com/parks/10315,39.4974128,-88.1634561
Seven Hickory Estates,"17336 E County Rd 1400N,","Charleston, IL",61920.0,Not found,https://www.mhvillage.com/parks/58004,39.57882852,-88.152562
Lakeview Ranch,"1 Lakeview Road,","Gays, IL",61928.0,137,https://www.mhvillage.com/parks/74510,31.3555186,-89.3408887
Heights,"Jefferson St,","Humboldt, IL",61931.0,14,https://www.mhvillage.com/parks/10319,40.7066877,-73.9230698
Lakeland Estates Mobile Home and RV Park,"4808 Paradise Road,","Mattoon, IL",61938.0,93,https://www.mhvillage.com/parks/10324,39.4323249,-88.3822337
Wilson Mobile Home Park,"812 N 9th St,","Mattoon, IL",61938.0,95,https://www.mhvillage.com/parks/82,39.4912604,-88.3643061
Old State Village,"5294 Old State Road,","Mattoon, IL",61938.0,200,https://www.mhvillage.com/parks/10326,39.4571316,-88.3723751
Mattoon Mobile Village,"609 Marion Avenue,","Mattoon, IL",61938.0,45,https://www.mhvillage.com/parks/10325,32.7166073,-97.3217001
Bennett Trailer Park,"1512 Shelby Ave,","Mattoon, IL",61938.0,Not found,https://www.mhvillage.com/parks/106970,36.1705179,-86.7443839
Green Acres MHC,"10055 Us Hwy 45,","Mattoon, IL",61938.0,Not found,https://www.mhvillage.com/parks/106842,39.52251366,-88.35842066
Cherrypoint Mobile Home Park,"607 Cherry Point Road,","Paris, IL",61944.0,Not found,https://www.mhvillage.com/parks/10479,38.0140576,-76.5006437
New Haven Mobile Home Park,"319 West Blackburn Road,","Paris, IL",61944.0,Not found,https://www.mhvillage.com/parks/10481,32.9799431,-96.6318949
Paris Mh Park,"105 Ann St,","Paris, IL",61944.0,Not found,https://www.mhvillage.com/parks/57757,39.619713,-87.694154
Sutton Place,"1244 N Main St,","Paris, IL",61944.0,Not found,https://www.mhvillage.com/parks/106870,39.63975857,-87.69112703
Sullivan MHP South,"208 Patterson Road,","Sullivan, IL",61951.0,66,https://www.mhvillage.com/parks/103917,-37.9269689,145.0454402
Sullivan MHP North,"722 W. Hunter St.,","Sullivan, IL",61951.0,73,https://www.mhvillage.com/parks/103915,39.6042626,-88.6143485
Parkview Mobile Home Court,"1 Parkview Trailer Court,","Tuscola, IL",61953.0,30,https://www.mhvillage.com/parks/10468,40.010829,-90.418523
Prairie View Acres,"932 East County Road 750 North,","Tuscola, IL",61953.0,26,https://www.mhvillage.com/parks/37534,39.7605921,-88.3012493
Okaw Mobile Home Court,"801 North Carico Street,","Tuscola, IL",61953.0,100,https://www.mhvillage.com/parks/10467,37.734434,-89.221603
Elmwood Estates,"401 E Walnut St,","Villa Grove, IL",61956.0,Not found,https://www.mhvillage.com/parks/57650,39.866049,-88.155609
Waymire Mobile Home Park,"Waymire Ln,","Villa Grove, IL",61956.0,Not found,https://www.mhvillage.com/parks/107196,43.4353165,-124.1749865
Windsor Mobile Home Park,"505 S Oak St,","Windsor, IL",61957.0,Not found,https://www.mhvillage.com/parks/57624,39.4347608,-88.5953349
Enchanted Village,"246 Wonderland Dr.,","Alton, IL",62002.0,521,https://www.mhvillage.com/parks/10926,38.9192424,-90.1000655
Glenwood,"3431 Seminary Street,","Alton, IL",62002.0,63,https://www.mhvillage.com/parks/10924,38.9244464,-90.1423576
Rockspring Mobile Home Park,"2115 College Avenue,","Alton, IL",62002.0,Not found,https://www.mhvillage.com/parks/10925,38.9032786,-90.1549441
Newcastle Park LLC,"1410 West Dr,","Bethalto, IL",62010.0,33,https://www.mhvillage.com/parks/10932,38.9130792,-90.0622317
Airport Mobile Home Park,"500 W Bethalto Drive,","Bethalto, IL",62010.0,Not found,https://www.mhvillage.com/parks/10927,38.9013275,-90.0561225
Beth Mor Mobile Home Park,"750 South Moreland Road,","Bethalto, IL",62010.0,89,https://www.mhvillage.com/parks/10928,38.896674,-90.0303098
Pohlmans Mobile Home Court,"900 Maple St,","Carrollton, IL",62016.0,Not found,https://www.mhvillage.com/parks/58035,39.298727,-90.414052
Neumann's Old Oak Ridge Manufactured Home Community,"100 S Wesley Dr,","East Alton, IL",62024.0,54,https://www.mhvillage.com/parks/10951,-38.0347834,145.3103431
Shady Lane Mobile Home Park,"144 E Alton Ave,","East Alton, IL",62024.0,Not found,https://www.mhvillage.com/parks/57931,33.7050282,-117.8672683
Airline Mh Village,"11 Fern Lane,","East Alton, IL",62024.0,Not found,https://www.mhvillage.com/parks/10947,43.6408874,-70.2302311
Fairfax Mobile Home Park,"210 Cooper Avenue,","East Alton, IL",62024.0,Not found,https://www.mhvillage.com/parks/10948,41.4392395,-79.7047131
Moores Mobile Home Park,"226 Virginia St,","East Alton, IL",62024.0,Not found,https://www.mhvillage.com/parks/10950,38.8855091,-90.1189895
Quail Run Mobile Home Community,"5100 Kay Lane,","Edwardsville, IL",62025.0,67,https://www.mhvillage.com/parks/10958,27.452823,-81.476372
Stone Meadows Mobile Home Park,"2900 Sand Road,","Edwardsville, IL",62025.0,284,https://www.mhvillage.com/parks/11696,38.762688,-90.025832
Serenity Circle Mobile Home Park,"5261 Chain Of Rocks Road,","Edwardsville, IL",62025.0,Not found,https://www.mhvillage.com/parks/10959,38.7601776,-90.018062
West Union Mobile Home Court,"436 W Union St,","Edwardsville, IL",62025.0,Not found,https://www.mhvillage.com/parks/57923,43.0462025,-77.1064255
Cappelatti Washburn Court,"600 Charles St,","Gillespie, IL",62033.0,Not found,https://www.mhvillage.com/parks/57892,39.116577,-89.819376
"East 30 Commons MHC, LLC","81 Glen Crossing Road,","Glen Carbon, IL",62034.0,95,https://www.mhvillage.com/parks/10960,38.752331,-89.9660397
Wheel Ranch Mobile Home Park,"1 Wheel Ranch Park,","Glen Carbon, IL",62034.0,32,https://www.mhvillage.com/parks/10945,38.740639,-90.000736
Coachlight Mobile Home Park,"170 Coachlight Trailer Park,","Glen Carbon, IL",62034.0,Not found,https://www.mhvillage.com/parks/106852,38.7496199,-89.9756117
Poplar Mobile Home Court,"5306 Godfrey Rd,","Godfrey, IL",62035.0,Not found,https://www.mhvillage.com/parks/57889,38.942218,-90.1910676
Kanallakan Court,"30106 Ingham Ln,","Godfrey, IL",62035.0,Not found,https://www.mhvillage.com/parks/107348,39.0068468,-90.2372891
Oak Grove,"2716 West Delmar Ave.,","Godfrey, IL",62035.0,73,https://www.mhvillage.com/parks/10962,38.9364417,-90.2439537
Sunny Hill,"20355 State Highway 3,","Grafton, IL",62037.0,Not found,https://www.mhvillage.com/parks/57888,38.99433329,-90.4170389
Mallard Lake,"135 Mallard Dr.,","Pontoon Beach, IL",62040.0,278,https://www.mhvillage.com/parks/29231,36.7703548,-76.5709345
"Village Green MHC, LLC","3801 Lake Drive,","Pontoon Beach, IL",62040.0,135,https://www.mhvillage.com/parks/10977,32.176633,-110.804776
Windsor Village,"4664 State Route 162,","Pontoon Beach, IL",62040.0,110,https://www.mhvillage.com/parks/29408,38.7045408,-90.1037276
Edwards MHP,"3113 W Chain Of Rocks Rd,","Granite City, IL",62040.0,65,https://www.mhvillage.com/parks/57882,38.7621232,-90.1315263
Sunny Shores Mobile Estates,"3120 W Chain Rocks Road,","Granite City, IL",62040.0,130,https://www.mhvillage.com/parks/10976,38.76399926,-90.10742746
66 Mobile Home Park,"5445 Maryville Rd,","Granite City, IL",62040.0,Not found,https://www.mhvillage.com/parks/57885,38.759399,-90.104128
Chain Of Rocks,"3123 W Chain Of Rocks Rd,","Granite City, IL",62040.0,Not found,https://www.mhvillage.com/parks/57884,38.7606049,-90.1080369
"Holiday Estates MHC, LLC","4419 Horeshoe Lake Road,","Pontoon Beach, IL",62040.0,217,https://www.mhvillage.com/parks/10967,38.7012053,-90.04482734
Park Towne West Mobile Home Park,"1A Parktown Drive,","Granite City, IL",62040.0,Not found,https://www.mhvillage.com/parks/10972,38.70939,-90.1676399
Cottonwood Mobile Home Park,"4140 Division Street,","Granite City, IL",62040.0,Not found,https://www.mhvillage.com/parks/10965,38.7128125,-90.16367
Country Mobile Home Park,"4536 Highway 162,","Granite City, IL",62040.0,Not found,https://www.mhvillage.com/parks/57883,41.3183466,-111.8528106
Lakewind Estates,"4734 Lake Dr,","Pontoon Beach, IL",62040.0,Not found,https://www.mhvillage.com/parks/107124,36.913938,-76.1317125
Lakewind Estates,"4734 Lake Dr,","Pontoon Beach, IL",62040.0,Not found,https://www.mhvillage.com/parks/107126,36.913938,-76.1317125
Lazy D Mh Park,"732 E Chain Of Rocks Rd,","Granite City, IL",62040.0,Not found,https://www.mhvillage.com/parks/57881,38.7613991,-90.078434
Hartford Mobile Home Park,"902 North Delmar Avenue,","Hartford, IL",62048.0,Not found,https://www.mhvillage.com/parks/10978,38.8410485,-90.0955431
Tri Lake Mobile Home Park,"22747 Miller Lake Rd.,","Jerseyville, IL",62052.0,42,https://www.mhvillage.com/parks/10664,39.107879,-90.3473171
Kamper Kompanion Mobile Home Park,"18388 East Frontage Road,","Litchfield, IL",62056.0,Not found,https://www.mhvillage.com/parks/11099,39.2748953,-89.6388219
Three Acre Court,"115 E Main St,","Staunton, IL",62088.0,Not found,https://www.mhvillage.com/parks/57685,39.0122223,-89.7869273
Rocwood Mobile Home Park,"45 Carroll Wood Drive,","Wood River, IL",62095.0,112,https://www.mhvillage.com/parks/10989,38.9425721,-90.1919346
Belmont Mobile Home Park,"5200 Collinsville Road,","East Saint Louis, IL",62201.0,Not found,https://www.mhvillage.com/parks/11362,38.655921,-90.097466
Forum Mobile Home Park,"5300 Collinsville Road,","East Saint Louis, IL",62201.0,Not found,https://www.mhvillage.com/parks/11366,38.656836,-90.096671
Havahome Mobile Home Park,"5100 Collinsville Road,","East Saint Louis, IL",62201.0,Not found,https://www.mhvillage.com/parks/11367,38.6547783,-90.0981981
Shamrock Haven,"3107 Kingshighway,","East Saint Louis, IL",62201.0,Not found,https://www.mhvillage.com/parks/36210,38.6524262,-90.093382
Illinoi Mh Park,"5598 Collinsville Rd,","East Saint Louis, IL",62201.0,Not found,https://www.mhvillage.com/parks/57926,38.659375,-90.089896
K & W,"1105 North 79th Street,","East Saint Louis, IL",62203.0,Not found,https://www.mhvillage.com/parks/11368,40.8246132,-96.6133118
Park Manor Estates,"1120 North 79th Street,","East Saint Louis, IL",62203.0,Not found,https://www.mhvillage.com/parks/11374,40.8248262,-96.6129069
Santa Barbara Village,"6 Santa Barbara Lane,","East Saint Louis, IL",62203.0,Not found,https://www.mhvillage.com/parks/11378,38.6021007,-90.0586874
Pheasant Run Mobile Home Community,"87 Circle Creek Lane,","Cahokia, IL",62206.0,123,https://www.mhvillage.com/parks/11377,37.8988928,-122.0941151
Colonial,"2820 Calvin Boulevard,","East Saint Louis, IL",62206.0,Not found,https://www.mhvillage.com/parks/11364,38.5493107,-90.1328749
Lazy Acres Mobile Home Park,"2800 Calvin Boulevard,","East Saint Louis, IL",62206.0,Not found,https://www.mhvillage.com/parks/11370,38.549245,-90.132282
Patricia Village,"2900 Camp Jackson Rd,","Cahokia, IL",62206.0,Not found,https://www.mhvillage.com/parks/58062,38.549685,-90.128756
Thunderbird Court,"2839 Camp Jackson Road,","East Saint Louis, IL",62206.0,Not found,https://www.mhvillage.com/parks/11380,38.549964,-90.1299778
Daland Court,"200 N 45th St,","Alorton, IL",62207.0,Not found,https://www.mhvillage.com/parks/58128,38.587317,-90.115376
Arapaho Village,"135 Arapaho Drive,","Belleville, IL",62220.0,147,https://www.mhvillage.com/parks/11306,34.8511367,-92.4318473
Sycamore Glen,"Periwinkle  Circle,","Belleville, IL",62220.0,Not found,https://www.mhvillage.com/parks/127582,38.4957014,-89.9654348
Green Mount Station,"1701 Mascoutah Ave,","Belleville, IL",62221.0,96,https://www.mhvillage.com/parks/27863,38.504814,-89.957346
Meadowbrook,"2512 E B Street, Unit B,","Belleville, IL",62221.0,176,https://www.mhvillage.com/parks/11322,38.52841692,-89.94852497
Oak Park Estates,"1200 West Blvd,","Belleville, IL",62221.0,85,https://www.mhvillage.com/parks/11691,34.05176,-118.332382
Pine Lawn Mobile Home Estates,"2414 East Main Street,","Belleville, IL",62221.0,49,https://www.mhvillage.com/parks/11326,38.5222416,-89.9575411
Cat & Fiddle Mobile Home Park,"8301 Old Saint Louis Road,","Belleville, IL",62223.0,Not found,https://www.mhvillage.com/parks/11308,38.5494619,-90.0730462
Sutter's Mobile Home Park,"2805 South Belt West,","Belleville, IL",62223.0,Not found,https://www.mhvillage.com/parks/11333,38.5264366,-90.0233828
Villa Court Mobile Home Park,"340 Princeton Dr,","Belleville, IL",62223.0,Not found,https://www.mhvillage.com/parks/11336,33.6661469,-117.9137988
Dutch Hollow,"2495 Royal Mine Road,","Belleville, IL",62226.0,464,https://www.mhvillage.com/parks/11314,38.5487776,-90.0044882
Country Meadows Manufactured Home Community & RV,"2211 North Illinois Street,","Swansea, IL",62226.0,231,https://www.mhvillage.com/parks/11312,39.7975837,-86.1590008
McDonald Mobile Homes & RV,"N Belt W &Amp; N Illinois St,","Swansea, IL",62226.0,73,https://www.mhvillage.com/parks/127652,38.51974047,-89.99424364
Pine Manor,"1750 Roosevelt Ave,","Belleville, IL",62226.0,Not found,https://www.mhvillage.com/parks/31719,38.5141697,-90.0120348
M & M Mobile Manor,"1401 N Illinois St,","Swansea, IL",62226.0,Not found,https://www.mhvillage.com/parks/11320,38.527642,-89.984305
Quail Run Mobile Home Community,"500 Anna Street,","Belleville, IL",62226.0,Not found,https://www.mhvillage.com/parks/11328,39.761702,-84.236244
Shawn Mobile Home Park,"3 Shawn Drive,","Swansea, IL",62226.0,Not found,https://www.mhvillage.com/parks/11331,42.1368784,-71.0574276
Westview Mobile Home Park,"3001 S Belt W,","Belleville, IL",62226.0,Not found,https://www.mhvillage.com/parks/11338,38.5305299,-90.0281308
Cleveland Mobile Home Park,"4216 N Illinois St,","Swansea, IL",62226.0,Not found,https://www.mhvillage.com/parks/57674,39.8324953,-86.1593712
Family Tree Park,"3213 S Belt,","Belleville, IL",62226.0,Not found,https://www.mhvillage.com/parks/107076,38.5312396,-90.0284969
Varski Properties MHP #1,"2919 S Belt West Suite C,","Belleville, IL",62226.0,Not found,https://www.mhvillage.com/parks/107026,38.52958342,-90.02637977
Swansea MHP,",","Swansea, IL",62226.0,Not found,https://www.mhvillage.com/parks/129240,38.5339392,-89.9889936
Germains Mh Park,"1330 N 17th St,","Swansea, IL",62226.0,Not found,https://www.mhvillage.com/parks/57673,38.5324603,-90.001749
North Town Trailer Park,"1300 Block N 1st St,","Swansea, IL",62226.0,Not found,https://www.mhvillage.com/parks/106818,38.52638237,-89.98558219
Swansea Village Mobile Home Park,"500 Ann St Swansea Il 62226,","Swansea, IL",62226.0,Not found,https://www.mhvillage.com/parks/106702,38.53151241,-89.97894073
"VINUS, Inc. Mobile Home Park","1710 Ridge Street,","Carlyle, IL",62231.0,35,https://www.mhvillage.com/parks/10295,38.6071319,-89.3796442
Carlyle Mobile Home Park,"410 Ridge,","Carlyle, IL",62231.0,6,https://www.mhvillage.com/parks/10293,42.0933344,-89.9714727
Quinns Mobile Home Park,"110 6th St,","Carlyle, IL",62231.0,Not found,https://www.mhvillage.com/parks/58037,38.6064303,-89.3649801
S&W Mobile Home Park,"1450 Fairfax St,","Carlyle, IL",62231.0,Not found,https://www.mhvillage.com/parks/107210,35.1753707,-89.9706872
Willow Woods Estates,"1166 Hollywood Heights Road,","Caseyville, IL",62232.0,41,https://www.mhvillage.com/parks/11347,38.6370332,-89.9881926
Quail Run of Caseyville,"25 Willow Wood,","Caseyville, IL",62232.0,40,https://www.mhvillage.com/parks/105459,54.2080353,-8.5115628
Countryside Gardens,"10 Susanne Court,","Caseyville, IL",62232.0,Not found,https://www.mhvillage.com/parks/11344,38.640365,-90.034095
Bethel Terrace Mh Park,"21 Roberta Dr,","Caseyville, IL",62232.0,Not found,https://www.mhvillage.com/parks/11341,-43.5627087,172.6163855
C & L Mobile Home Park,"840 Hollywood Heights Rd,","Caseyville, IL",62232.0,Not found,https://www.mhvillage.com/parks/58027,38.632716,-89.997254
Chevy Chase Mobile Home Park,"8649 Forest Boulevard,","Caseyville, IL",62232.0,Not found,https://www.mhvillage.com/parks/11342,38.6367869,-90.0474741
Mc Nallys Mh Community,"103 Southern Dr,","Caseyville, IL",62232.0,Not found,https://www.mhvillage.com/parks/11345,25.9305824,-97.5195183
Quiet Point Village,"Quiet Point Rd,","Caseyville, IL",62232.0,Not found,https://www.mhvillage.com/parks/106936,38.6415086,-89.9962804
Highland Acres Village,"Central St,","Chester, IL",62233.0,90,https://www.mhvillage.com/parks/11178,42.0640734,-87.6980879
Woodland Trails,"82 Deer Chase,","Collinsville, IL",62234.0,287,https://www.mhvillage.com/parks/65054,39.5766606,-75.1191969
Mounds Mobile Home Park,"8040 Collinsville Road,","Collinsville, IL",62234.0,27,https://www.mhvillage.com/parks/29090,38.6584734,-90.0552054
Carriage Lane Mobile Home Park,"104 East Woodcrest Drive,","Collinsville, IL",62234.0,Not found,https://www.mhvillage.com/parks/10935,32.2573123,-90.237784
Collinsville Mh Community,"723 Vandalia St,","Collinsville, IL",62234.0,Not found,https://www.mhvillage.com/parks/10936,44.9616216,-93.1891135
Greenwood Mh Park,"1332 Leland St,","Collinsville, IL",62234.0,Not found,https://www.mhvillage.com/parks/57971,42.986894,-83.6972677
Kesler Trailer Park,"1226 Portland Ave,","Collinsville, IL",62234.0,Not found,https://www.mhvillage.com/parks/57970,45.375773,-75.66478
Sunset Mobile Home Park,"201 Art St,","Collinsville, IL",62234.0,Not found,https://www.mhvillage.com/parks/57966,30.293259,-89.3775774
Trailer City MHP,"811 N Bluff Rd,","Collinsville, IL",62234.0,Not found,https://www.mhvillage.com/parks/57965,38.6873274,-90.0104494
Wagon Wheel,"304 Meister St,","Collinsville, IL",62234.0,Not found,https://www.mhvillage.com/parks/10933,38.674273,-89.9759769
Westwood Mobile Home Park,"216 West Woodcrest Drive,","Collinsville, IL",62234.0,Not found,https://www.mhvillage.com/parks/10941,38.698544,-89.9889838
Columbia Trailer Park,"548 South Main Street,","Columbia, IL",62236.0,Not found,https://www.mhvillage.com/parks/11090,38.4408065,-90.1939303
LepereVillage,"69 Lepere Ct,","Dupo, IL",62239.0,100,https://www.mhvillage.com/parks/11351,38.531631,-90.188208
Stoneybrook Manufactured Home Community,"62 Stoney At Adams Road,","Dupo, IL",62239.0,140,https://www.mhvillage.com/parks/29949,38.54542363,-90.20246219
Bluffview,"488 Mcbride Avenue,","Dupo, IL",62239.0,8,https://www.mhvillage.com/parks/11348,40.9074966,-74.1946886
Briggs Mobile Home Park,"112 Wallace Avenue,","Dupo, IL",62239.0,14,https://www.mhvillage.com/parks/11349,40.0092731,-75.7039281
Town Talk Mh Park,"532 Mcbride Ave Lot A,","Dupo, IL",62239.0,Not found,https://www.mhvillage.com/parks/57937,38.54035203,-90.18722073
Kelling's Mobile Home Park,"401 Kellings Farm Road,","East Carondelet, IL",62240.0,19,https://www.mhvillage.com/parks/11359,38.5355162,-90.2232445
E & S Mobile Home Park,"Alex & Eddie Street,","East Carondelet, IL",62240.0,Not found,https://www.mhvillage.com/parks/11353,38.52897884,-90.20464636
Deerfield Court Mobile Home Park,"58 Deerfield Court,","Freeburg, IL",62243.0,100,https://www.mhvillage.com/parks/11386,41.7830616,-72.620956
Cardinal Estates,"S Walnut St,","Freeburg, IL",62243.0,Not found,https://www.mhvillage.com/parks/11385,38.4251985,-89.9159042
Harris Mobile Home Court,"1 N Walnut St,","Freeburg, IL",62243.0,Not found,https://www.mhvillage.com/parks/11387,38.426417,-89.916028
Lackmann's Mobile Home Park,"302 North Railroad Street,","Freeburg, IL",62243.0,Not found,https://www.mhvillage.com/parks/11388,35.5625816,-78.2015096
Lazy Acres,"8231 Jefferson Rd,","Freeburg, IL",62243.0,Not found,https://www.mhvillage.com/parks/11389,42.1074482,-84.2636984
2 Creeks Community,"1323 Gold Street,","Greenville, IL",62246.0,100,https://www.mhvillage.com/parks/10155,37.4279357,-121.9759512
South Greenville M H Subdivision,"696 Il Route 127,","Greenville, IL",62246.0,Not found,https://www.mhvillage.com/parks/57874,36.7705662,2.9368257
Cedar Park,"Davis St,","Keyesport, IL",62253.0,Not found,https://www.mhvillage.com/parks/107056,42.0479584,-87.6846111
Lakeview Mobile Home Park,"850 West Mc Allister Street,","Lebanon, IL",62254.0,Not found,https://www.mhvillage.com/parks/11392,38.5938933,-89.82889832
Parkview Terrace Mh Park,"677 Scott Troy Rd,","Lebanon, IL",62254.0,Not found,https://www.mhvillage.com/parks/57840,38.6129741,-89.8741997
Marissa Mobile Estates,"300 West Mill Street,","Marissa, IL",62257.0,37,https://www.mhvillage.com/parks/11396,38.245713,-89.756681
Holland Mobile Home Park,"301 Mine Road,","Mascoutah, IL",62258.0,34,https://www.mhvillage.com/parks/11402,38.4878534,-89.7892604
Mascoutah Acres,"300 South Independence Street,","Mascoutah, IL",62258.0,Not found,https://www.mhvillage.com/parks/11404,38.6536787,-94.3490336
Mascoutah Manor,"615 East South Street,","Mascoutah, IL",62258.0,Not found,https://www.mhvillage.com/parks/36642,38.4891413,-89.7895741
Hilltop Court Mobile Home Park,"8835 State Route 163,","Millstadt, IL",62260.0,Not found,https://www.mhvillage.com/parks/57814,38.54570686,-90.10145456
Cozy Acres,"314 North Jefferson Street,","Millstadt, IL",62260.0,Not found,https://www.mhvillage.com/parks/11407,39.168765,-86.506951
Nashville Mobile Home Park,"1149 South Mill Street,","Nashville, IL",62263.0,64,https://www.mhvillage.com/parks/11525,39.0789197,-94.630395
New Athens Mobile Home Park,"2234 Dormaru Drive,","New Athens, IL",62264.0,82,https://www.mhvillage.com/parks/11409,38.30284574,-89.86335006
Heather Lynn Estates,"98 White Oak Drive,","New Baden, IL",62265.0,64,https://www.mhvillage.com/parks/52185,38.5386125,-89.7103084
Rensing Mobile Home Park,"Rr 1,","New Baden, IL",62265.0,Not found,https://www.mhvillage.com/parks/57782,36.75075,43.701
Lake Suzanne,"301 North Main Street,","Shiloh, IL",62269.0,103,https://www.mhvillage.com/parks/11412,38.566174,-89.894246
Valley View Estates,"100 Julius Dr.,","Shiloh, IL",62269.0,233,https://www.mhvillage.com/parks/11690,33.952638,-83.410325
Castle Acres,"1713 West Us Hwy 50, #60,","O Fallon, IL",62269.0,167,https://www.mhvillage.com/parks/11410,38.58537031,-89.91110219
Shiloh Mobile Home Park,"109 South High Street,","O Fallon, IL",62269.0,52,https://www.mhvillage.com/parks/11419,39.9598106,-83.0004242
S & H O Fallon Mobile Home Park,"1605 West Us Highway 50,","O Fallon, IL",62269.0,Not found,https://www.mhvillage.com/parks/11417,38.58357948,-89.87401613
Crossroad Terrace East,"1820 Crestview Drive,","O Fallon, IL",62269.0,Not found,https://www.mhvillage.com/parks/11411,38.5967083,-89.963072
Washington Springs Estates,"305 East Taylor Avenue,","Okawville, IL",62271.0,Not found,https://www.mhvillage.com/parks/11526,31.9842297,-102.0703356
Country View Mobile Home Community,"134 County Lane West,","Pierron, IL",62273.0,122,https://www.mhvillage.com/parks/10160,34.9972086,-89.0902007
Holders Mobile Home Park,"Rr 1,","Pinckneyville, IL",62274.0,40,https://www.mhvillage.com/parks/11164,36.75075,43.701
Evergreen Estates,"111 New St,","Pinckneyville, IL",62274.0,Not found,https://www.mhvillage.com/parks/107000,38.0695456,-89.3799619
Knapps Trailer Park,"202 E Brown St,","Pinckneyville, IL",62274.0,Not found,https://www.mhvillage.com/parks/57752,38.0713001,-89.3800937
Westside Trailer Park,"5132 State Route 13,","Pinckneyville, IL",62274.0,Not found,https://www.mhvillage.com/parks/57749,30.1427402,-92.3623579
Bluff View Mobile Home Park,"Oliver St And Connor St,","Prairie Du Rocher, IL",62277.0,Not found,https://www.mhvillage.com/parks/107180,38.09376154,-90.10814781
Henry's Court Mobile Home Park,"101 E 1st St,","Ruma, IL",62278.0,Not found,https://www.mhvillage.com/parks/107004,38.13360678,-89.99568616
Knotty Pines,"707 Catherine Drive,","Red Bud, IL",62278.0,120,https://www.mhvillage.com/parks/11185,41.4204152,-83.9352079
Gaslight Mobile Home Park,"200 Lincoln St,","Red Bud, IL",62278.0,Not found,https://www.mhvillage.com/parks/57728,38.212978,-89.992974
Ron's Court,"1 Fountain Ln,","Red Bud, IL",62278.0,Not found,https://www.mhvillage.com/parks/107376,38.18743381,-89.99730733
Cottonwood Trailer Park,"10576 Keck Rd,","Saint Jacob, IL",62281.0,Not found,https://www.mhvillage.com/parks/107290,38.7213879,-89.7759938
Country Air Mobile Manor,"301 North Lincoln Street,","Smithton, IL",62285.0,96,https://www.mhvillage.com/parks/11422,39.721063,-104.986351
Park Estates Mobile Home Park,"69 Park Estates,","Sparta, IL",62286.0,82,https://www.mhvillage.com/parks/11192,38.1114405,-89.7074858
Belmont Court,"321 W Belmont St,","Sparta, IL",62286.0,Not found,https://www.mhvillage.com/parks/57701,38.117833,-89.706915
Gemini Court,"7984 Gemini Ct,","Sparta, IL",62286.0,Not found,https://www.mhvillage.com/parks/107380,38.1000465,-89.6317411
Heartland Manor M H C,"1202 W Broadway,","Steeleville, IL",62288.0,Not found,https://www.mhvillage.com/parks/57683,38.0100304,-89.6714311
Shady Acres Mobile Home Park,"Ellis &Amp; Drew Sts,","Summerfield, IL",62289.0,Not found,https://www.mhvillage.com/parks/107366,38.5962319,-89.75122927
Terry's Rental,"851 S Minnie St,","Tilden, IL",62292.0,Not found,https://www.mhvillage.com/parks/107420,33.7368987,-117.8549395
Hutchings Mobile Home Park,"E 5th St,","Trenton, IL",62293.0,Not found,https://www.mhvillage.com/parks/106978,41.1283514,-104.79452
High Meadows Mobile Home Park,"426 Red Bird Street,","Troy, IL",62294.0,Not found,https://www.mhvillage.com/parks/10986,33.9731768,-80.487165
B&D Mobile Home Park,"306 E 4th St,","Waterloo, IL",62298.0,Not found,https://www.mhvillage.com/parks/107152,38.3344782,-90.14645692
Greenbrier Mh Park,"506 W Mill St,","Waterloo, IL",62298.0,Not found,https://www.mhvillage.com/parks/57635,38.3354301,-90.1557889
Halfpap Mobile Home Park,"Saint Anthony Road,","Quincy, IL",62301.0,50,https://www.mhvillage.com/parks/10129,19.0555367,72.9007717
Palm Gardens Mobile Home Park,"2401 South 8th Street,","Quincy, IL",62301.0,90,https://www.mhvillage.com/parks/10137,39.902744,-91.403106
Worman Mobile Home Park,"1801 North 16th Street,","Quincy, IL",62301.0,Not found,https://www.mhvillage.com/parks/11663,33.4678003,-112.0472644
North Park Place,"1510 Penthouse Drive,","Quincy, IL",62301.0,Not found,https://www.mhvillage.com/parks/10135,39.9498946,-91.3762214
Quarantine Community,"4 Testing Parkway,","Quincy, IL",62301.0,Not found,https://www.mhvillage.com/parks/125565,39.94228798,-91.39510563
Trailer Town Park,"1720 North 12th Street,","Quincy, IL",62301.0,Not found,https://www.mhvillage.com/parks/10145,39.9525923,-91.3964136
Valley View Mobile Home Park,"1106-1218 Rim Road,","Quincy, IL",62305.0,54,https://www.mhvillage.com/parks/10146,39.917184,-91.30675854
Paradise Lane Mobile Home Park,"1514 Spring Lake Road,","Quincy, IL",62305.0,70,https://www.mhvillage.com/parks/29624,28.8755064,-81.9279321
Royal Oaks Mobile Home Park,"6800 Broadway Street,","Quincy, IL",62305.0,78,https://www.mhvillage.com/parks/10140,39.934693,-91.308138
Melrose Mobile Home Park,"57th And Melrose South,","Quincy, IL",62305.0,51,https://www.mhvillage.com/parks/10132,39.92371197,-91.31722125
Hultz's Expressway Mobile Home Park,"4501 Gardner Expressway,","Quincy, IL",62305.0,Not found,https://www.mhvillage.com/parks/10131,39.9151817,-91.4116993
Mission Mobil Park,"1035 Rim Rd,","Quincy, IL",62305.0,Not found,https://www.mhvillage.com/parks/57735,35.0618277,-79.0497368
Quincy View,"1220 Rim Road,","Quincy, IL",62305.0,Not found,https://www.mhvillage.com/parks/128988,31.7784097,-106.4915256
Timber Ridge Mh Park,"7200 State St,","Quincy, IL",62305.0,Not found,https://www.mhvillage.com/parks/57732,39.9257926,-91.3539535
Town and Country Rentals,"1526 Lori Dr,","Quincy, IL",62305.0,92,https://www.mhvillage.com/parks/10144,39.8646579,-91.3916547
Paradise Lane,"1522 Wilkes Avenue,","Quincy, IL",62305.0,103,https://www.mhvillage.com/parks/128980,41.5354969,-90.6037291
Rancho Vista Estates,"3737 North 24th Street,","Quincy, IL",62305.0,100,https://www.mhvillage.com/parks/10139,43.0855186,-87.9423818
Paradise Lane,",","1522 Wilkes Ave, IL",62305.0,Not found,https://www.mhvillage.com/parks/128978,39.9923959,-91.3895046
Town & Country Mobile Estates,"5530 Gardner Expwy,","Quincy, IL",62306.0,Not found,https://www.mhvillage.com/parks/95127,39.9151817,-91.4116993
Mc Coy Mh Park,"307 N Main St,","Camp Point, IL",62320.0,Not found,https://www.mhvillage.com/parks/58060,42.1682394,-71.0450377
Carthage Mobile Home Park,"215 Locust St,","Carthage, IL",62321.0,Not found,https://www.mhvillage.com/parks/10561,40.4098404,-91.1424634
Country Side Mobile Home Park,"6560 Us Highway 136,","Colchester, IL",62326.0,Not found,https://www.mhvillage.com/parks/57986,40.2531985,-94.0460836
Eggers & Husband Mobile Home Park,"901 Macomb,","Colchester, IL",62326.0,Not found,https://www.mhvillage.com/parks/36302,44.4585441,-75.6052151
Pine,"913 Macomb St,","Colchester, IL",62326.0,Not found,https://www.mhvillage.com/parks/106846,40.429122,-90.782261
Hamilton Estates Mobile Home Park,"711 North 19th Street,","Hamilton, IL",62341.0,38,https://www.mhvillage.com/parks/10568,39.9678525,-75.1682389
Rivercross Manufactured Home Community,"2090 Keokuk Street,","Hamilton, IL",62341.0,83,https://www.mhvillage.com/parks/10566,38.5839387,-90.2236713
Leisureland Pleasure Park,"27 Leisureland,","Niota, IL",62358.0,Not found,https://www.mhvillage.com/parks/57781,-38.1740535,145.2094897
Parkview Court Mobile Home Park,"155 West Kellogg Street,","Pittsfield, IL",62363.0,Not found,https://www.mhvillage.com/parks/11169,39.616698,-90.8079991
Cooper Trailer Court,"220 Marion St,","Warsaw, IL",62379.0,Not found,https://www.mhvillage.com/parks/57637,49.8814388,-97.1182499
Lakewood Manor Mobile Home Park,"800 West Rickelman Avenue,","Effingham, IL",62401.0,262,https://www.mhvillage.com/parks/10498,39.149418,-88.553526
Easy Breeze Mobile Home Park,"S. Banker (S. Rt 45),","Effingham, IL",62401.0,90,https://www.mhvillage.com/parks/10494,39.10830066,-88.57975364
Four Seasons Mobile Home Park,"92 Four Seasons Est,","Effingham, IL",62401.0,150,https://www.mhvillage.com/parks/10495,39.09104843,-88.549876
Oak View Mobile Home Park,"Catherin,","Altamont, IL",62411.0,Not found,https://www.mhvillage.com/parks/10492,48.4837197,34.9285617
North Side Mobile Home Park,"504 N 8th St,","Altamont, IL",62411.0,15,https://www.mhvillage.com/parks/58122,39.0648692,-88.7544638
Iva Belle Mobile Home Park,"North Third Street,","Altamont, IL",62411.0,Not found,https://www.mhvillage.com/parks/106614,39.9733915,-82.9992786
Greenland Estates,"304 NE 15th St Casey Il 62420,","Casey, IL",62420.0,Not found,https://www.mhvillage.com/parks/107072,39.30759018,-87.97634781
Greenup Mobile Home Park,"East Cumberland,","Greenup, IL",62428.0,Not found,https://www.mhvillage.com/parks/107012,35.953805,-84.9748195
Midtown Trailer Court,"1400 Cedar Street,","Lawrenceville, IL",62439.0,Not found,https://www.mhvillage.com/parks/10834,38.720378,-87.686637
Pal & Sal Mobile Home Park,"1730 12th St,","Lawrenceville, IL",62439.0,Not found,https://www.mhvillage.com/parks/57845,38.7187306,-87.6843467
Lazy G Village,"15358 E Clarksville Rd,","Marshall, IL",62441.0,Not found,https://www.mhvillage.com/parks/57824,39.4136955,-87.7276877
Harlow Mobile Home Park,"Daralen Drive,","Marshall, IL",62441.0,75,https://www.mhvillage.com/parks/29205,39.37284832,-87.70326708
Prahls Mobile Home Park,"320 Clear Creek Drive,","Neoga, IL",62447.0,Not found,https://www.mhvillage.com/parks/22799,39.7571595,-86.545609
HTC MHP,"E 7th St,","Neoga, IL",62447.0,Not found,https://www.mhvillage.com/parks/107084,39.3189725,-88.4472303
J & L Estates,"1030 Us Route 45,","Neoga, IL",62447.0,110,https://www.mhvillage.com/parks/1541,39.2466299,-88.4864369
Newton Mobile Home Park,"Foster St,","Newton, IL",62448.0,Not found,https://www.mhvillage.com/parks/107008,51.7602994,0.155292
Fehrenbacher Mobile Home Park,"1401 South Whittle Avenue,","Olney, IL",62450.0,92,https://www.mhvillage.com/parks/11198,38.71734,-88.084998
Olney Mobile Home Park,"1116 South West Street,","Olney, IL",62450.0,48,https://www.mhvillage.com/parks/11199,38.726171,-88.0940998
B & East Mobile Home Court,"1039 W Main St,","Olney, IL",62450.0,Not found,https://www.mhvillage.com/parks/57771,38.7300656,-88.0985443
J & J Mobile Home Park,"900 South Camp Avenue,","Olney, IL",62450.0,Not found,https://www.mhvillage.com/parks/11201,38.721379,-88.087458
Kincade Acres,"4375 E Kincade Ln,","Olney, IL",62450.0,Not found,https://www.mhvillage.com/parks/106758,37.2172353,-87.2334997
Southwind Village Mobile Home Park,"800 East Southwind Boulevard,","Robinson, IL",62454.0,68,https://www.mhvillage.com/parks/10428,26.161053,-81.740836
Quiet Lane Mobile Home Park,"1209 West Cherry Street,","Robinson, IL",62454.0,30,https://www.mhvillage.com/parks/10427,39.0083641,-87.7569299
Bennett Mobile Home Park,"1406 S Cross Street,","Robinson, IL",62454.0,Not found,https://www.mhvillage.com/parks/57725,38.9943,-87.738763
Belden Enterprises Mobile Home Park,"Girard &Amp; Spring St,","Saint Elmo, IL",62458.0,Not found,https://www.mhvillage.com/parks/107274,39.02486254,-88.84526219
Cooper Mh Park,"500 E Madison St,","Toledo, IL",62468.0,Not found,https://www.mhvillage.com/parks/57665,39.274987,-88.237472
Greeson's Prairie Village,"500 East Madison,","Toledo, IL",62468.0,Not found,https://www.mhvillage.com/parks/106866,39.274987,-88.237472
Starwalt Enterprises MHP,"East Monroe,","Toledo, IL",62468.0,Not found,https://www.mhvillage.com/parks/107108,39.3586748,-83.4988069
Beckman Mobile Home Court,"2205 W Fillmore St,","Vandalia, IL",62471.0,Not found,https://www.mhvillage.com/parks/57653,41.8679938,-87.6832787
Vandalia Mobile Home Park,"1410 West Saint Louis Avenue,","Vandalia, IL",62471.0,Not found,https://www.mhvillage.com/parks/10506,38.95628055,-89.1098586
Riva & Sons Mobile Home Park,"301 North Snell,","Blue Mound, IL",62513.0,Not found,https://www.mhvillage.com/parks/10875,33.7663228,-84.6686791
Buffalo Court,"100 S Main St,","Buffalo, IL",62515.0,23,https://www.mhvillage.com/parks/106886,39.85201606,-89.40530078
Hyde Park Manufactured Housing Community,"1210 Dowining Street,","Decatur, IL",62521.0,182,https://www.mhvillage.com/parks/10884,39.79602749,-88.97405877
Flower Farm Trailer Park,"1525 South Fairview Avenue,","Decatur, IL",62521.0,Not found,https://www.mhvillage.com/parks/10889,39.8307436,-88.9760871
Park City Mobile Home Park,"3200 North Delta Avenue,","Decatur, IL",62526.0,519,https://www.mhvillage.com/parks/10888,39.883582,-88.94616232
Wilder Haven East,"3925 Tiffany Terrace,","Decatur, IL",62526.0,494,https://www.mhvillage.com/parks/10892,39.8955633,-88.9137218
Woodland Estates,"2397 North Illinois Street,","Decatur, IL",62526.0,267,https://www.mhvillage.com/parks/10885,39.8002338,-86.1589364
Decatur Mobile Home park,"2397 North Illinois Street,","Decatur, IL",62526.0,268,https://www.mhvillage.com/parks/10879,39.8002338,-86.1589364
Harrison Mobile Home Park,"1045 West Harrison Avenue,","Decatur, IL",62526.0,Not found,https://www.mhvillage.com/parks/10883,42.997557,-87.9254939
Turk's Mobile Home Park,"1235 East Pershing Road,","Decatur, IL",62526.0,Not found,https://www.mhvillage.com/parks/10891,39.8772817,-88.9404301
Kemmerling,"Highway 104,","Kincaid, IL",62540.0,Not found,https://www.mhvillage.com/parks/107142,31.9246796,119.0898632
Telfords Arrowhead,"400 W Dunn St,","Macon, IL",62544.0,Not found,https://www.mhvillage.com/parks/57828,39.7104,-89.004505
Niantic Mobile Home Community,"100 S Main St,","Niantic, IL",62551.0,Not found,https://www.mhvillage.com/parks/106932,39.8522932,-89.168388
Richwood Manor,"200 North Pine Stret,","Pana, IL",62557.0,70,https://www.mhvillage.com/parks/10272,39.39176207,-89.06839178
Lake Pana MH Court,"Bayadier Dr,","Pana, IL",62557.0,Not found,https://www.mhvillage.com/parks/107240,39.3788894,-89.0348014
Park Manor,"1020 Birch Avenue,","Pana, IL",62557.0,Not found,https://www.mhvillage.com/parks/10271,39.3854685,-89.0668198
Pawnee Mobile Home Park,"Rte 104 E,","Pawnee, IL",62558.0,38,https://www.mhvillage.com/parks/11244,39.5922166,-89.5721981
Lucky Horseshoe,"1401 North 3rd Street,","Riverton, IL",62561.0,140,https://www.mhvillage.com/parks/11247,39.8594069,-89.5445369
Hilltop Mobile Home Park,"1000 East Kinzie Street,","Riverton, IL",62561.0,170,https://www.mhvillage.com/parks/11246,39.849549,-89.532923
Jess & Angel's Westview,"1900 West South 2nd St,","Shelbyville, IL",62565.0,Not found,https://www.mhvillage.com/parks/106774,39.4046145,-88.8143378
Sunnyside Mobile Estates,"1000 West South 10th Street,","Shelbyville, IL",62565.0,Not found,https://www.mhvillage.com/parks/11303,39.3991544,-88.8038283
Taylorville's Valley View Mobile Home Park,"913 North Taylorville Boulevard,","Taylorville, IL",62568.0,65,https://www.mhvillage.com/parks/10276,39.55907222,-89.31038226
Bailey Park,"120 North Cherokee Street,","Taylorville, IL",62568.0,41,https://www.mhvillage.com/parks/10279,39.5502584,-89.2902442
Fairview Mobile Home Park,"Fairview Trailer Court,","Taylorville, IL",62568.0,20,https://www.mhvillage.com/parks/10275,39.5519104,-89.3122622
Hillcrest Mobile Home Park,"1500 East Main Cross Street,","Taylorville, IL",62568.0,119,https://www.mhvillage.com/parks/10277,39.5504076,-89.2802463
Big Oak Mh Park,"1006 E Franklin St,","Taylorville, IL",62568.0,Not found,https://www.mhvillage.com/parks/57669,39.5473645,-89.2833635
Cherry Wood Trailer Park,"1219 N Cheney St,","Taylorville, IL",62568.0,Not found,https://www.mhvillage.com/parks/57668,39.5621283,-89.3070373
Mcclelland's Mobile Home Estates,"15625 Kennedy Road,","Auburn, IL",62615.0,16,https://www.mhvillage.com/parks/11705,39.5720845,-89.7446215
Sharp's Mobile Home Park,"900 Lincoln St,","Auburn, IL",62615.0,37,https://www.mhvillage.com/parks/11234,39.597435,-89.749859
Maple Trailer Court,"700 W 4th St,","Beardstown, IL",62618.0,Not found,https://www.mhvillage.com/parks/58091,40.013451,-90.439066
Westside Trailer Park,"612 W 9th St,","Beardstown, IL",62618.0,Not found,https://www.mhvillage.com/parks/107224,40.0101582,-90.4354041
Sumner Pointe,"510 Ross St,","Carlinville, IL",62626.0,38,https://www.mhvillage.com/parks/58039,39.2926002,-89.8773478
Chatham Villa Mobile Home Park,"503 South Main Street,","Chatham, IL",62629.0,49,https://www.mhvillage.com/parks/11237,39.6692084,-89.7045649
Chatham Southgate Mobile Home,"601 South Main Street,","Chatham, IL",62629.0,49,https://www.mhvillage.com/parks/36153,39.6673112,-89.704332
Blue Spruce Mobile Home Park,"414 E Locust St,","Chatham, IL",62629.0,Not found,https://www.mhvillage.com/parks/11238,39.6732715,-89.7001113
Mauks Mobile Home Court,"826 W Madison St,","Girard, IL",62640.0,Not found,https://www.mhvillage.com/parks/10910,39.4454668,-89.7881785
Timberli Lake Estates,"27668 Timberli Rd,","Girard, IL",62640.0,60,https://www.mhvillage.com/parks/11664,39.396002,-89.8782588
Girard Mobile Home Estates,"Zachary Court,","Girard, IL",62640.0,27,https://www.mhvillage.com/parks/10909,40.6255351,-74.1312153
Westview Courts,"710 W Adams St,","Greenview, IL",62642.0,Not found,https://www.mhvillage.com/parks/107118,40.0831512,-89.747743
Northwood,"1110 Sandusky Rd.,","Jacksonville, IL",62650.0,176,https://www.mhvillage.com/parks/11725,33.5500138,-86.9246597
Prairie Knolls,"Blacks Lane,","Jacksonville, IL",62650.0,163,https://www.mhvillage.com/parks/11112,53.182393,-1.3897299
Cedarbrook Estates,"544 Brooklyn Avenue,","Jacksonville, IL",62650.0,42,https://www.mhvillage.com/parks/11700,40.6612668,-73.9456626
Rolling Acres,"1042 East Morton Avenue,","Jacksonville, IL",62650.0,156,https://www.mhvillage.com/parks/11113,36.0727252,-118.9932514
Hillcrest Mobile Home Park,"841 West Morton Avenue,","Jacksonville, IL",62650.0,Not found,https://www.mhvillage.com/parks/11107,36.0733995,-119.0360913
Pleasant View Mobile Home Park,"1033 E Morton Ave,","Jacksonville, IL",62650.0,Not found,https://www.mhvillage.com/parks/57855,39.7231423,-90.2170507
Tremont Park,"1500 Tremont Street,","Lincoln, IL",62656.0,89,https://www.mhvillage.com/parks/10873,42.3320836,-71.0992967
Lincoln Terrace,"904 21st Street,","Lincoln, IL",62656.0,110,https://www.mhvillage.com/parks/10868,40.161432,-89.382571
Woodland Mobile Home Court,"707 Feldman Drive,","Lincoln, IL",62656.0,67,https://www.mhvillage.com/parks/10872,40.164849,-89.379269
JD Singleton Mobile Home Court,"113 Chestnut Street,","Lincoln, IL",62656.0,Not found,https://www.mhvillage.com/parks/10871,40.1535666,-89.3699342
Shady Grove Mobile Park,"1100 North Postville Drive,","Lincoln, IL",62656.0,Not found,https://www.mhvillage.com/parks/10867,40.1597318,-89.386457
Simonson Cove,"1230 21st St,","Lincoln, IL",62656.0,Not found,https://www.mhvillage.com/parks/107172,40.1614404,-89.3840517
Loami MHP,"723 North Main Street,","Loami, IL",62661.0,100,https://www.mhvillage.com/parks/11243,39.678853,-89.8467547
Whispering Pines MHC,"723 N Main St,","Loami, IL",62661.0,100,https://www.mhvillage.com/parks/106830,39.678853,-89.8467547
Three Acres Park,"303 E Little St,","Rushville, IL",62681.0,Not found,https://www.mhvillage.com/parks/106848,40.1263926,-90.5584554
Tomlinson Court,"319 E Adams St,","Rushville, IL",62681.0,Not found,https://www.mhvillage.com/parks/57715,40.1239249,-90.5573303
Tallula Trailer Court,"Chestnut &Amp; Yates,","Tallula, IL",62688.0,Not found,https://www.mhvillage.com/parks/107120,39.95664654,-89.87786863
Gas Lite Village,"1168 N Grove St,","Virden, IL",62690.0,Not found,https://www.mhvillage.com/parks/106770,39.5153903,-89.7703508
Virden Village Mobile Home Park,"South Emmett St,","Virden, IL",62690.0,Not found,https://www.mhvillage.com/parks/107112,34.2672184,-86.2105168
Velten Trailer Park,"252 S Cass St,","Virginia, IL",62691.0,Not found,https://www.mhvillage.com/parks/107334,39.9477365,-90.2099152
Velten Trailer Park,"252 S Cass St,","Virginia, IL",62691.0,Not found,https://www.mhvillage.com/parks/107336,34.9302899,-88.5185636
Maple Creek,"200 West Street,","Woodson, IL",62695.0,33,https://www.mhvillage.com/parks/111136,40.7147237,-74.0144315
Oakwood an FR Community,"3725 N. Peoria Road,","Springfield, IL",62702.0,210,https://www.mhvillage.com/parks/11292,39.8500453,-89.6258751
Ridge Village Mobile Home Park,"2800 Ridge Avenue,","Springfield, IL",62702.0,52,https://www.mhvillage.com/parks/11281,39.81689,-89.609657
Northbrook MHC,"3430 Peoria Road,","Springfield, IL",62702.0,180,https://www.mhvillage.com/parks/11266,36.2847427,-81.8984976
Prairie Grove,"3319 Ridgewood Avenue,","Springfield, IL",62702.0,78,https://www.mhvillage.com/parks/11689,39.3372235,-76.675688
Fremont Park,"3501 Ridgely Ave,","Springfield, IL",62702.0,94,https://www.mhvillage.com/parks/11704,33.510916,-101.9696665
North Oaks,"4001 Sandhill Rd,","Springfield, IL",62702.0,162,https://www.mhvillage.com/parks/45862,34.9167344,-91.9563236
Westwood Place,"1515 North Lincoln Avenue,","Springfield, IL",62702.0,206,https://www.mhvillage.com/parks/11269,27.9566454,-82.4972387
Willow Grove,"3451 Ridge Avenue,","Springfield, IL",62702.0,97,https://www.mhvillage.com/parks/11294,39.8234219,-89.5994452
Woodland Acres Mobile Home Park,"3500 North Dirksen Parkway,","Springfield, IL",62702.0,232,https://www.mhvillage.com/parks/11295,39.8524049,-89.6077702
Cottonwood South,"3617 North Grand Avenue East,","Springfield, IL",62702.0,295,https://www.mhvillage.com/parks/11254,39.8163656,-89.5982916
Westwood Park,"1500 North Bruns Lane,","Springfield, IL",62702.0,20,https://www.mhvillage.com/parks/66625,39.8199391,-89.686245
Park Ridge Mobile Home Park,"1751 North Grand Avenue West,","Springfield, IL",62702.0,106,https://www.mhvillage.com/parks/31506,39.8159488,-89.6821871
Grant Mobile Home Park,"3401 East Ridge Avenue,","Springfield, IL",62702.0,90,https://www.mhvillage.com/parks/11265,40.008751,-105.2546033
Linden Manor,"3041 E Linden Ave,","Springfield, IL",62702.0,45,https://www.mhvillage.com/parks/11271,39.804507,-89.609429
Gaslite Senior Mobile Home Court,"1618 W Jefferson St.,","Springfield, IL",62702.0,57,https://www.mhvillage.com/parks/104537,39.807525,-89.6803683
Johns Mobile Apts & Park,"3337 E Carpenter St,","Springfield, IL",62702.0,Not found,https://www.mhvillage.com/parks/57690,39.8067171,-89.6022504
Scottsdale,"720 Forrest Avenue,","Springfield, IL",62702.0,Not found,https://www.mhvillage.com/parks/111132,32.4570677,-99.7516452
Sunset,"3303 E Enos Ave,","Springfield, IL",62702.0,Not found,https://www.mhvillage.com/parks/57692,39.80758,-89.6023825
Brittany Court,"3206 E Elm Street,","Springfield, IL",62702.0,Not found,https://www.mhvillage.com/parks/111114,28.0100143,-82.4242439
North Wood Estates,"4113 North Peoria Road,","Springfield, IL",62702.0,235,https://www.mhvillage.com/parks/11275,39.853536,-89.620873
Timberline Manor,"720 Forrest Avenue,","Springfield, IL",62702.0,175,https://www.mhvillage.com/parks/11288,32.4570677,-99.7516452
Pheasant Run,"3535 East Cook Street,","Springfield, IL",62703.0,163,https://www.mhvillage.com/parks/11277,39.7947054,-89.5996484
Timber Creek Living,"2800 Via Rosso,","Springfield, IL",62703.0,200,https://www.mhvillage.com/parks/68948,39.7669536,-89.6235766
Barco Mh Park,"3000 S 11th St,","Springfield, IL",62703.0,Not found,https://www.mhvillage.com/parks/57697,39.760997,-89.6398
C & C Trailer Park,"3000 S 12th St,","Springfield, IL",62703.0,Not found,https://www.mhvillage.com/parks/57696,39.760947,-89.6381879
Fox Bridge Court,"1847 Truman Rd,","Springfield, IL",62703.0,Not found,https://www.mhvillage.com/parks/57693,39.7687484,-89.6284188
Sunset Inn Trailor Court,"3540 S 6th Street Rd,","Springfield, IL",62703.0,Not found,https://www.mhvillage.com/parks/57686,39.7560825,-89.6445231
Woodside Mobile Home Community,"2735 South 14th Street,","Springfield, IL",62703.0,Not found,https://www.mhvillage.com/parks/11256,39.7770936,-89.636919
Edgewood Mobile Home Park,"3201 South Douglas Avenue,","Springfield, IL",62704.0,48,https://www.mhvillage.com/parks/11257,39.7884516,-89.6704391
Salmons Mobile Home Court,"3625 South Douglas Avenue,","Springfield, IL",62704.0,Not found,https://www.mhvillage.com/parks/11285,39.7884516,-89.6704391
Bissell Village Mobile Home Park,"198 Gem St.,","Springfield, IL",62707.0,180,https://www.mhvillage.com/parks/11251,39.84993651,-89.58809146
Cottonwood Cove,"3617 N Grand Ave E.,","Springfield, IL",62707.0,280,https://www.mhvillage.com/parks/127230,39.8163656,-89.5982916
Forrest Park,"300 Forrest Avenue,","Springfield, IL",62707.0,160,https://www.mhvillage.com/parks/127228,39.8051947,-89.6175826
Lincoln Place,"1236 North Oaklane Road Lot 317,","Springfield, IL",62707.0,322,https://www.mhvillage.com/parks/11270,39.82002257,-89.5490538
Country Estates Mobile Home Park,"3500 Hazlett Road,","Springfield, IL",62707.0,38,https://www.mhvillage.com/parks/11706,39.85259482,-89.7363986
Lincoln Trails,"4263 Old Route 36,","Springfield, IL",62707.0,Not found,https://www.mhvillage.com/parks/57689,39.7529689,-89.7493143
Englewood Mobile Home Park,"7100 Mechanicsburg Rd,","Springfield, IL",62712.0,Not found,https://www.mhvillage.com/parks/57694,39.8022797,-89.5836959
Deerwood Mobile Home Park,"1755 West Mccord St Rt 161,","Centralia, IL",62801.0,100,https://www.mhvillage.com/parks/10298,38.53654934,-89.17431927
Centralia Estates,"101 Harting Drive,","Centralia, IL",62801.0,20,https://www.mhvillage.com/parks/128976,38.533945,-89.175334
Brookside Mobile Home Park,"1350 South Brookside Street,","Centralia, IL",62801.0,128,https://www.mhvillage.com/parks/10994,38.5122758,-89.15185734
Countryview Trailer Court,"417 West 17th Street,","Centralia, IL",62801.0,Not found,https://www.mhvillage.com/parks/10297,38.5106384,-89.1427486
East Winds Mobile Home Park,"14 Eastwinds Trail,","Centralia, IL",62801.0,Not found,https://www.mhvillage.com/parks/37094,38.52738046,-89.15309781
Heritage Mobile Home Park,"240 S Wabash Ave,","Centralia, IL",62801.0,Not found,https://www.mhvillage.com/parks/58021,38.4993224,-89.1397517
Park Street Mobile Home Park,"Park St,","Central City, IL",62801.0,Not found,https://www.mhvillage.com/parks/107034,38.52741403,-89.15313
15th Street Mobile Home Park,"735 E 15th St,","Centralia, IL",62801.0,Not found,https://www.mhvillage.com/parks/58025,38.5108914,-89.1332798
Central City Mobile Home Park,"208 E Green St,","Central City, IL",62801.0,Not found,https://www.mhvillage.com/parks/106684,38.547183,-89.128012
Jana Drive Mh Park,"363 E 17th St,","Centralia, IL",62801.0,Not found,https://www.mhvillage.com/parks/58019,38.510462,-89.136892
Richmond Heights,"331 S Morrison St,","Centralia, IL",62801.0,Not found,https://www.mhvillage.com/parks/58017,38.54468067,-89.12153753
Rosewood Mobile Home Park,"1810 S Pine St,","Centralia, IL",62801.0,Not found,https://www.mhvillage.com/parks/58016,38.5067144,-89.1305157
Sycamore Street MHP,"1214-1224 Sycamore St,","Centralia, IL",62801.0,Not found,https://www.mhvillage.com/parks/107418,38.5331616,-89.1263517
Town And Country Mh Park,"1100 Gragg St,","Centralia, IL",62801.0,Not found,https://www.mhvillage.com/parks/10992,38.53826,-89.1205131
Rend Lake Mobile Home Park,"231 South Court231 South Court St #12,","Benton, IL",62812.0,52,https://www.mhvillage.com/parks/10518,38.01713399,-88.92655781
Section Two Trailer Park,"1106 Lickliter Street,","Benton, IL",62812.0,Not found,https://www.mhvillage.com/parks/10516,37.9860739,-88.9179326
Jim Davis Mobile Home Park,"West Dr,","Carmi, IL",62821.0,28,https://www.mhvillage.com/parks/27865,38.0890682,-88.1823355
Oakwood Mobile Home Park,"405 Biggs Ln,","Christopher, IL",62822.0,Not found,https://www.mhvillage.com/parks/57993,37.9808309,-89.0578106
Bateman Trailer Court,"925 S Main St,","Clay City, IL",62824.0,Not found,https://www.mhvillage.com/parks/57991,38.6776769,-88.3541354
Franklin & Franklin Mh Park,"119 Walnut St NE,","Clay City, IL",62824.0,Not found,https://www.mhvillage.com/parks/57990,38.69203784,-88.35276044
J & M Mobile Home Park,"13 Mobile Home Drive,","Du Quoin, IL",62832.0,20,https://www.mhvillage.com/parks/11158,38.0108739,-89.2490194
Crossroads Mobile Home Park,"7672 State  Route 154 Lot 601,","Du Quoin, IL",62832.0,29,https://www.mhvillage.com/parks/57943,38.01934482,-89.24528563
Trail Acres Trailer Park,"550 E Smith Ave,","Du Quoin, IL",62832.0,Not found,https://www.mhvillage.com/parks/57940,38.0196739,-89.2326477
Fairfield Estates,"509 NW 7th Street,","Fairfield, IL",62837.0,Not found,https://www.mhvillage.com/parks/36979,38.3867486,-88.3683339
Kinmundy Estates Mobile Home Park,"613 S State,","Kinmundy, IL",62854.0,Not found,https://www.mhvillage.com/parks/106986,38.99344993,-89.5750687
McLeansboro Mobile Estates,"705 Kath St,","McLeansboro, IL",62859.0,Not found,https://www.mhvillage.com/parks/107282,38.09955965,-88.52724666
Cherry Street Estates,"1901 N Cherry St Lot 35,","Mount Carmel, IL",62863.0,110,https://www.mhvillage.com/parks/11507,38.41140366,-87.86109417
Perry's Mobile Home Park,"9568 Wabash 10 Avenue,","Mount Carmel, IL",62863.0,Not found,https://www.mhvillage.com/parks/11510,38.38769299,-87.81121808
Oak Grove Village,"2401 Veterans Memorial Dr.,","Mount Vernon, IL",62864.0,155,https://www.mhvillage.com/parks/10656,38.299763,-88.923949
Rolling Meadow Mobile Home Community,"16584 North Il Highway 37,","Mount Vernon, IL",62864.0,13,https://www.mhvillage.com/parks/11723,38.36778562,-88.92019
Parkview Mobile Home Park,"1200 South 28th Street,","Mount Vernon, IL",62864.0,Not found,https://www.mhvillage.com/parks/10657,38.303373,-88.924608
Country View Mobile Home Park,"2502 Norton Rd,","Odin, IL",62870.0,Not found,https://www.mhvillage.com/parks/107386,38.56504904,-89.08608259
Country View Mobile Home Park,"2502 Norton Rd,","Odin, IL",62870.0,Not found,https://www.mhvillage.com/parks/107386,38.56502387,-89.08609332
Country View Mobile Home Park,"2502 Norton Rd,","Odin, IL",62870.0,Not found,https://www.mhvillage.com/parks/107388,38.56504904,-89.08608259
Country View Mobile Home Park,"2502 Norton Rd,","Odin, IL",62870.0,Not found,https://www.mhvillage.com/parks/107388,38.56502387,-89.08609332
Southern Gardens Mh Park,"2501 S Broadway Ave,","Salem, IL",62881.0,71,https://www.mhvillage.com/parks/57711,38.60690245,-88.94193063
Country School Mobile Village,"2804 State Route 37,","Salem, IL",62881.0,Not found,https://www.mhvillage.com/parks/57712,38.6035035,-88.93970636
Salem Mobile Home Park,"1700 North Broadway,","Salem, IL",62881.0,Not found,https://www.mhvillage.com/parks/11003,38.647249,-88.9412471
Starlight Mobile Home Village,"300 East Olive Street,","Salem, IL",62881.0,Not found,https://www.mhvillage.com/parks/11005,38.6302033,-88.9425962
Colonial Esates,"3556 Old 51 Road,","Sandoval, IL",62882.0,Not found,https://www.mhvillage.com/parks/31166,38.5770888,-89.1147405
Oakview Mobile Home Park,"1200 E 9th St,","West Frankfort, IL",62896.0,Not found,https://www.mhvillage.com/parks/57628,37.906778,-88.914358
West Haven Mobile Home Park,"Casey St Lot W,","Woodlawn, IL",62898.0,Not found,https://www.mhvillage.com/parks/57621,38.38375241,-89.06128636
Southern Mobile Home Park,"335 Warren Road,","Carbondale, IL",62901.0,77,https://www.mhvillage.com/parks/10629,37.705502,-89.195126
University Heights,"290 Warren Rd,","Carbondale, IL",62901.0,96,https://www.mhvillage.com/parks/58042,37.705219,-89.194921
Reed Station Mobile Home Park,"142 Brandon Circle,","Carbondale, IL",62901.0,68,https://www.mhvillage.com/parks/10625,37.75490408,-89.16356206
Bel-Aire Mobile Home Park,"900 East Park Street,","Carbondale, IL",62901.0,Not found,https://www.mhvillage.com/parks/10600,37.7158367,-89.2034805
Covington Trailer Court,"613 East College Street,","Carbondale, IL",62901.0,Not found,https://www.mhvillage.com/parks/10608,37.7221408,-89.2082865
Edgewood Estates,"500 Charles Road,","Carbondale, IL",62901.0,Not found,https://www.mhvillage.com/parks/10612,37.7529085,-89.222962
Hocbriar Mobile Home Estates,"590 Haney Rd,","Carbondale, IL",62901.0,Not found,https://www.mhvillage.com/parks/58048,37.76702155,-89.16093864
Meadowbrook Estates,"388 Warren Rd,","Carbondale, IL",62901.0,Not found,https://www.mhvillage.com/parks/58047,37.7060728,-89.1951319
Bush Mobile Home Park North 2,"368 Warren Rd,","Carbondale, IL",62901.0,Not found,https://www.mhvillage.com/parks/58051,37.7059458,-89.1951378
Mills & Son Trailer Court,"608 North Oakland Avenue,","Carbondale, IL",62901.0,Not found,https://www.mhvillage.com/parks/10619,37.7328066,-89.2278311
Pleasant Valley,"214 Warren Rd,","Carbondale, IL",62901.0,Not found,https://www.mhvillage.com/parks/58044,37.7039705,-89.1949371
Roxanne Mobile Home Park,"2301 South Illinois Avenue,","Carbondale, IL",62901.0,Not found,https://www.mhvillage.com/parks/10627,37.692976,-89.218829
Wildwood Mobile Home Park,"6755 Giant City Rd,","Carbondale, IL",62902.0,89,https://www.mhvillage.com/parks/10636,37.7025339,-89.1846669
Crab Orchard Lake Mh Community,"1343 S County Line Rd,","Carbondale, IL",62902.0,125,https://www.mhvillage.com/parks/10609,37.7523572,-89.1518872
Frost Mobile Home Park,"1207 East Pleasant Hill Road,","Carbondale, IL",62902.0,Not found,https://www.mhvillage.com/parks/10613,37.7002151,-89.2065743
Pleasant Hill Mobile Home Park,"848 East Pleasant Hill Road,","Carbondale, IL",62902.0,Not found,https://www.mhvillage.com/parks/36151,37.7004276,-89.1988656
Bush Mobile Home Park,"1134 E Pleasant Hill Rd,","Carbondale, IL",62902.0,Not found,https://www.mhvillage.com/parks/58052,37.700181,-89.204547
Oak Hills Mobile Home Park,"1268 E Pleasant Hill Rd,","Carbondale, IL",62902.0,Not found,https://www.mhvillage.com/parks/58046,37.700045,-89.2066363
Southwood Mobile Home Park,"1285 E Pleasant Hill Rd,","Carbondale, IL",62902.0,Not found,https://www.mhvillage.com/parks/58043,37.7002031,-89.2067343
Cedar Lane Mobile Home Park,"2571 South Illinois Avenue,","Carbondale, IL",62903.0,100,https://www.mhvillage.com/parks/10606,37.6881307,-89.2199803
Town & Country Mobile Home Park,"2511 South Illinois Avenue,","Carbondale, IL",62903.0,139,https://www.mhvillage.com/parks/10633,37.689978,-89.21904
Malibu Village Mobile Home Park,"2441 South Illinois Avenue,","Carbondale, IL",62903.0,Not found,https://www.mhvillage.com/parks/10617,37.6939755,-89.2188065
Anna Mobile Home Park,"426 E Jefferson St,","Anna, IL",62906.0,Not found,https://www.mhvillage.com/parks/58119,37.4559095,-89.2486965
Craigs Mobile Home Park,"423 E Jefferson St,","Anna, IL",62906.0,Not found,https://www.mhvillage.com/parks/58117,37.4559095,-89.2486965
Ritcheys Mobile Home Park,"504 Williams St,","Anna, IL",62906.0,Not found,https://www.mhvillage.com/parks/58116,37.4612965,-89.2413392
The Orchards,"200 Paradise Acres Road,","Carterville, IL",62918.0,Not found,https://www.mhvillage.com/parks/11595,37.76506809,-89.11643267
Carney Mobile Home Park,"425 Willow Street,","Carterville, IL",62918.0,24,https://www.mhvillage.com/parks/11593,37.757351,-89.081394
C K Wheelers Mh Park,"5546 Wheeler Ln,","Carterville, IL",62918.0,Not found,https://www.mhvillage.com/parks/58033,37.73998161,-89.05586134
Hickory Leaf Mobile Home Park,"10015 North Wolf Creek Road,","Carterville, IL",62918.0,Not found,https://www.mhvillage.com/parks/11594,37.74029621,-89.0587357
Big Oak,"S Poplar St,","De Soto, IL",62924.0,Not found,https://www.mhvillage.com/parks/107236,37.8153705,-89.2238105
Adams Mobile Home Park,"R 45 & Grove St,","Eldorado, IL",62930.0,Not found,https://www.mhvillage.com/parks/107030,37.8138057,-88.4303497
Dorris Heights Trailer Park,"820 Dorris Heights Road,","Harrisburg, IL",62946.0,Not found,https://www.mhvillage.com/parks/36307,37.7498728,-88.5531433
Evergreen Park,"200 S Granger St # 221,","Harrisburg, IL",62946.0,Not found,https://www.mhvillage.com/parks/57870,37.73611788,-88.54483854
Jeans Mobile Home Park,"16 North Texas Street,","Harrisburg, IL",62946.0,Not found,https://www.mhvillage.com/parks/11232,37.7325141,-88.526989
Blue Blaze Mobile Home Estates,"2400 West Blue Blaze Trail,","Herrin, IL",62948.0,78,https://www.mhvillage.com/parks/11598,37.809551,-89.058315
Watkins Mobile Home Park,"110 N Acre Ln # 450,","Jonesboro, IL",62952.0,Not found,https://www.mhvillage.com/parks/57850,37.45768717,-89.26563146
Eastcape MHP,"60 Virginia Dr,","East Cape Girardeau, IL",62957.0,60,https://www.mhvillage.com/parks/10151,41.5028325,-72.7738209
Kay-Lou MHC,"2624 Ingersoll Ln,","Marion, IL",62959.0,96,https://www.mhvillage.com/parks/11606,37.7371133,-88.9635189
Marion Mobile Home Village,"2004 Village Ln,","Marion, IL",62959.0,150,https://www.mhvillage.com/parks/11608,37.7234,-88.9074953
Williams Trailer Court,"200 East Patrick Street,","Marion, IL",62959.0,80,https://www.mhvillage.com/parks/11613,37.7632932,-77.4767233
Bill Butler Mobile Home Park,"831 Jodi Lane,","Marion, IL",62959.0,Not found,https://www.mhvillage.com/parks/11602,41.9918615,-88.213307
Juanita's Mobile Home Park,"1501 North Russell Street,","Marion, IL",62959.0,Not found,https://www.mhvillage.com/parks/11605,46.886184,-114.018564
South Court Mobile Home Park,"1810 Wolff Drive,","Marion, IL",62959.0,Not found,https://www.mhvillage.com/parks/11612,33.6686139,-96.7208439
Hidden Acres Mobile Home Park,"114 Hidden Acres Road,","Metropolis, IL",62960.0,39,https://www.mhvillage.com/parks/11716,31.9434144,-85.1512346
Grand Oaks,"Haydn's Dr,","Metropolis, IL",62960.0,Not found,https://www.mhvillage.com/parks/107018,39.9830302,-75.2086154
Green Oaks,"Haydn's Dr,","Metropolis, IL",62960.0,Not found,https://www.mhvillage.com/parks/107016,39.9830302,-75.2086154
Fairway Mobile Home Park,"5287 Country Club Rd,","Murphysboro, IL",62966.0,Not found,https://www.mhvillage.com/parks/57792,37.7422851,-89.2812856
Green Acres,"2417 New Era Rd,","Murphysboro, IL",62966.0,Not found,https://www.mhvillage.com/parks/57790,37.760136,-89.245718
Happy Ours Trailer Court,"1 Happy Ours Ln,","Murphysboro, IL",62966.0,Not found,https://www.mhvillage.com/parks/57785,37.3638307,-79.4040879
Country Village Mobile Home Park,"151 Hoffman Road,","Murphysboro, IL",62966.0,63,https://www.mhvillage.com/parks/10641,43.2175839,-77.5598861
Cinnamon Lane Mobile Home Park,"59 Cinnamon Lane,","Murphysboro, IL",62966.0,Not found,https://www.mhvillage.com/parks/38046,53.4151275,-2.5613565
Country Circle Trailer Park,"1 C Circle Dr,","Murphysboro, IL",62966.0,Not found,https://www.mhvillage.com/parks/57793,37.81707257,-89.34072721
Greentree Mobile Home Park,"1 Dars Road,","Murphysboro, IL",62966.0,Not found,https://www.mhvillage.com/parks/36811,37.804055,-89.333817
Meadow Vista MHP,"1219 N 20th St,","Murphysboro, IL",62966.0,Not found,https://www.mhvillage.com/parks/106222,37.7747414,-89.346127
Tan Tara Mobile Home Park,"2534 New Era Road,","Murphysboro, IL",62966.0,Not found,https://www.mhvillage.com/parks/10631,37.7615717,-89.2458963
Fairveiw Estates,"Fairgrounds Rd,","Vienna, IL",62995.0,20,https://www.mhvillage.com/parks/126106,41.5451693,-73.2227644
Pleasant Acres Living Spaces,"124 Apple St,","Vienna, IL",62995.0,Not found,https://www.mhvillage.com/parks/57651,39.9155437,-75.2527576
,,,,,,34.220389,70.3800314
,,,,,,34.220389,70.3800314
,,,,,,34.220389,70.3800314
,,,,,,34.220389,70.3800314
,,,,,,34.220389,70.3800314
,,,,,,34.220389,70.3800314
,,,,,,34.220389,70.3800314
,,,,,,34.220389,70.3800314
,,,,,,34.220389,70.3800314
,,,,,,34.220389,70.3800314
,,,,,,34.220389,70.3800314
,,,,,,34.220389,70.3800314
,,,,,,34.220389,70.3800314
,,,,,,34.220389,70.3800314
,,,,,,34.220389,70.3800314
,,,,,,34.220389,70.3800314
,,,,,,34.220389,70.3800314
,,,,,,34.220389,70.3800314
,,,,,,34.220389,70.3800314
,,,,,,34.220389,70.3800314
,,,,,,34.220389,70.3800314
,,,,,,34.220389,70.3800314
,,,,,,34.220389,70.3800314
,,,,,,34.220389,70.3800314
,,,,,,34.220389,70.3800314
,,,,,,34.220389,70.3800314
,,,,,,34.220389,70.3800314
,,,,,,34.220389,70.3800314
,,,,,,34.220389,70.3800314
,,,,,,34.220389,70.3800314
,,,,,,34.220389,70.3800314
,,,,,,34.220389,70.3800314
,,,,,,34.220389,70.3800314
,,,,,,34.220389,70.3800314
,,,,,,34.220389,70.3800314
,,,,,,34.220389,70.3800314
,,,,,,34.220389,70.3800314
,,,,,,34.220389,70.3800314
,,,,,,34.220389,70.3800314
,,,,,,34.220389,70.3800314
,,,,,,34.220389,70.3800314
,,,,,,34.220389,70.3800314
,,,,,,34.220389,70.3800314
,,,,,,34.220389,70.3800314
,,,,,,34.220389,70.3800314
,,,,,,34.220389,70.3800314
,,,,,,34.220389,70.3800314
,,,,,,34.220389,70.3800314
,,,,,,34.220389,70.3800314
,,,,,,34.220389,70.3800314
,,,,,,34.220389,70.3800314
,,,,,,34.220389,70.3800314
,,,,,,34.220389,70.3800314
,,,,,,34.220389,70.3800314
,,,,,,34.220389,70.3800314
,,,,,,34.220389,70.3800314
,,,,,,34.220389,70.3800314
,,,,,,34.220389,70.3800314
,,,,,,34.220389,70.3800314
,,,,,,34.220389,70.3800314
,,,,,,34.220389,70.3800314
,,,,,,34.220389,70.3800314
,,,,,,34.220389,70.3800314
,,,,,,34.220389,70.3800314
,,,,,,34.220389,70.3800314
,,,,,,34.220389,70.3800314
,,,,,,34.220389,70.3800314
,,,,,,34.220389,70.3800314
,,,,,,34.220389,70.3800314
,,,,,,34.220389,70.3800314
,,,,,,34.220389,70.3800314
,,,,,,34.220389,70.3800314
,,,,,,34.220389,70.3800314
,,,,,,34.220389,70.3800314
,,,,,,34.220389,70.3800314
,,,,,,34.220389,70.3800314
,,,,,,34.220389,70.3800314
,,,,,,34.220389,70.3800314
,,,,,,34.220389,70.3800314
,,,,,,34.220389,70.3800314
,,,,,,34.220389,70.3800314
,,,,,,34.220389,70.3800314
,,,,,,34.220389,70.3800314
,,,,,,34.220389,70.3800314
,,,,,,34.220389,70.3800314
,,,,,,34.220389,70.3800314
,,,,,,34.220389,70.3800314
,,,,,,34.220389,70.3800314
,,,,,,34.220389,70.3800314
,,,,,,34.220389,70.3800314
,,,,,,34.220389,70.3800314
,,,,,,34.220389,70.3800314
,,,,,,34.220389,70.3800314
,,,,,,34.220389,70.3800314
,,,,,,34.220389,70.3800314
,,,,,,34.220389,70.3800314
,,,,,,34.220389,70.3800314
,,,,,,34.220389,70.3800314
,,,,,,34.220389,70.3800314
,,,,,,34.220389,70.3800314
,,,,,,34.220389,70.3800314
,,,,,,34.220389,70.3800314
,,,,,,34.220389,70.3800314
,,,,,,34.220389,70.3800314
,,,,,,34.220389,70.3800314
,,,,,,34.220389,70.3800314
,,,,,,34.220389,70.3800314
,,,,,,34.220389,70.3800314
,,,,,,34.220389,70.3800314
,,,,,,34.220389,70.3800314
,,,,,,34.220389,70.3800314
,,,,,,34.220389,70.3800314
,,,,,,34.220389,70.3800314
,,,,,,34.220389,70.3800314
,,,,,,34.220389,70.3800314
,,,,,,34.220389,70.3800314
,,,,,,34.220389,70.3800314
,,,,,,34.220389,70.3800314
,,,,,,34.220389,70.3800314
,,,,,,34.220389,70.3800314
,,,,,,34.220389,70.3800314
,,,,,,34.220389,70.3800314
,,,,,,34.220389,70.3800314
,,,,,,34.220389,70.3800314
,,,,,,34.220389,70.3800314
,,,,,,34.220389,70.3800314
,,,,,,34.220389,70.3800314
,,,,,,34.220389,70.3800314
,,,,,,34.220389,70.3800314
,,,,,,34.220389,70.3800314
,,,,,,34.220389,70.3800314
,,,,,,34.220389,70.3800314
,,,,,,34.220389,70.3800314
,,,,,,34.220389,70.3800314
,,,,,,34.220389,70.3800314
,,,,,,34.220389,70.3800314
,,,,,,34.220389,70.3800314
,,,,,,34.220389,70.3800314
,,,,,,34.220389,70.3800314
,,,,,,34.220389,70.3800314
,,,,,,34.220389,70.3800314
,,,,,,34.220389,70.3800314
,,,,,,34.220389,70.3800314
,,,,,,34.220389,70.3800314
,,,,,,34.220389,70.3800314
,,,,,,34.220389,70.3800314
,,,,,,34.220389,70.3800314
,,,,,,34.220389,70.3800314
,,,,,,34.220389,70.3800314
,,,,,,34.220389,70.3800314
,,,,,,34.220389,70.3800314
,,,,,,34.220389,70.3800314
,,,,,,34.220389,70.3800314
,,,,,,34.220389,70.3800314
,,,,,,34.220389,70.3800314
,,,,,,34.220389,70.3800314
,,,,,,34.220389,70.3800314
,,,,,,34.220389,70.3800314
,,,,,,34.220389,70.3800314
,,,,,,34.220389,70.3800314
,,,,,,34.220389,70.3800314
,,,,,,34.220389,70.3800314
,,,,,,34.220389,70.3800314
,,,,,,34.220389,70.3800314
,,,,,,34.220389,70.3800314
,,,,,,34.220389,70.3800314
,,,,,,34.220389,70.3800314
,,,,,,34.220389,70.3800314
,,,,,,34.220389,70.3800314
,,,,,,34.220389,70.3800314
,,,,,,34.220389,70.3800314
,,,,,,34.220389,70.3800314
,,,,,,34.220389,70.3800314
,,,,,,34.220389,70.3800314
,,,,,,34.220389,70.3800314
,,,,,,34.220389,70.3800314
,,,,,,34.220389,70.3800314
,,,,,,34.220389,70.3800314
,,,,,,34.220389,70.3800314
,,,,,,34.220389,70.3800314
,,,,,,34.220389,70.3800314
,,,,,,34.220389,70.3800314
,,,,,,34.220389,70.3800314
,,,,,,34.220389,70.3800314
,,,,,,34.220389,70.3800314
,,,,,,34.220389,70.3800314
,,,,,,34.220389,70.3800314
,,,,,,34.220389,70.3800314
